{"type":"FeatureCollection","attribution":"© OpenStreetMap contributors, geoBoundaries (ODbL 1.0)","features":[{"type":"Feature","properties":{"code":"61","name":"West Kalimantan"},"geometry":{"type":"MultiPolygon","coordinates":[[[[110.112,-2.673],[110.081,-2.693],[110.067,-2.73],[110.045,-2.748],[110.084,-2.761],[110.128,-2.742],[110.116,-2.718],[110.128,-2.694],[110.112,-2.673]]],[[[109.687,-1.217],[109.691,-1.193],[109.78,-1.147],[109.767,-1.111],[109.762,-1.004],[109.718,-0.989],[109.675,-1.02],[109.644,-1.01],[109.637,-0.986],[109.597,-0.981],[109.545,-1.002],[109.488,-0.973],[109.475,-1.001],[109.459,-1.003],[109.427,-1.205],[109.411,-1.24],[109.383,-1.26],[109.434,-1.295],[109.501,-1.31],[109.591,-1.248],[109.687,-1.217]]],[[[113.84,0.668],[113.844,0.706],[113.875,0.713],[113.895,0.739],[113.889,0.787],[113.926,0.838],[113.875,0.893],[113.88,0.928],[113.908,0.954],[113.918,0.987],[113.915,1.008],[113.892,1.023],[113.894,1.052],[113.942,1.063],[113.959,1.114],[113.986,1.144],[114.03,1.147],[114.046,1.132],[114.08,1.162],[114.11,1.15],[114.14,1.199],[114.126,1.224],[114.161,1.266],[114.142,1.293],[114.153,1.313],[114.148,1.379],[114.207,1.41],[114.143,1.465],[113.954,1.442],[113.937,1.416],[113.909,1.413],[113.815,1.364],[113.831,1.347],[113.81,1.299],[113.703,1.263],[113.665,1.215],[113.63,1.216],[113.617,1.227],[113.625,1.25],[113.596,1.26],[113.582,1.306],[113.544,1.32],[113.498,1.317],[113.451,1.286],[113.419,1.285],[113.395,1.319],[113.366,1.326],[113.355,1.359],[113.326,1.377],[113.306,1.373],[113.267,1.392],[113.251,1.385],[113.233,1.398],[113.181,1.379],[113.141,1.393],[113.106,1.445],[113.019,1.404],[112.975,1.409],[112.982,1.45],[113.04,1.474],[113.032,1.493],[113.071,1.529],[113.059,1.558],[113.006,1.569],[113.003,1.581],[112.975,1.563],[112.885,1.588],[112.842,1.537],[112.801,1.541],[112.776,1.562],[112.677,1.552],[112.66,1.569],[112.5,1.58],[112.447,1.55],[112.43,1.523],[112.395,1.523],[112.352,1.5],[112.319,1.505],[112.276,1.466],[112.208,1.45],[112.195,1.411],[112.226,1.399],[112.226,1.384],[112.199,1.322],[112.177,1.311],[112.174,1.26],[112.158,1.25],[112.168,1.219],[112.142,1.186],[112.156,1.17],[112.154,1.142],[111.935,1.118],[111.928,1.088],[111.88,1.066],[111.866,1.009],[111.826,0.985],[111.776,0.999],[111.762,1.021],[111.748,1.009],[111.716,1.008],[111.714,1.026],[111.667,1.043],[111.595,1.008],[111.577,0.974],[111.56,0.986],[111.548,0.978],[111.552,0.957],[111.54,0.949],[111.523,0.957],[111.514,1.007],[111.489,1.034],[111.464,1.036],[111.443,1.016],[111.405,1.009],[111.272,1.068],[111.254,1.064],[111.225,1.093],[111.198,1.065],[111.142,1.052],[111.079,1.051],[110.997,1.027],[110.905,1.028],[110.888,0.981],[110.862,0.966],[110.86,0.95],[110.809,0.95],[110.805,0.9],[110.769,0.932],[110.755,0.9],[110.723,0.908],[110.697,0.883],[110.668,0.876],[110.649,0.893],[110.652,0.906],[110.633,0.909],[110.628,0.872],[110.576,0.854],[110.491,0.876],[110.446,0.908],[110.433,0.926],[110.439,0.944],[110.406,0.953],[110.395,0.997],[110.359,0.983],[110.339,1.013],[110.324,0.993],[110.308,1.004],[110.277,0.996],[110.286,1.044],[110.263,1.056],[110.268,1.066],[110.248,1.086],[110.241,1.117],[110.209,1.118],[110.213,1.15],[110.192,1.183],[110.155,1.199],[110.097,1.198],[110.086,1.217],[110.064,1.209],[110.065,1.265],[109.979,1.299],[109.962,1.403],[109.93,1.425],[109.894,1.415],[109.836,1.422],[109.829,1.456],[109.839,1.486],[109.807,1.466],[109.799,1.499],[109.698,1.588],[109.689,1.61],[109.662,1.619],[109.661,1.693],[109.686,1.782],[109.636,1.805],[109.585,1.792],[109.583,1.835],[109.553,1.853],[109.558,1.871],[109.538,1.925],[109.564,1.937],[109.565,1.951],[109.552,1.956],[109.56,1.971],[109.6,1.974],[109.627,1.991],[109.645,2.081],[109.587,1.991],[109.471,1.981],[109.431,1.95],[109.338,1.943],[109.323,1.927],[109.344,1.875],[109.338,1.832],[109.287,1.776],[109.303,1.773],[109.26,1.673],[109.221,1.633],[109.104,1.567],[109.049,1.505],[109.037,1.445],[109.044,1.347],[108.987,1.275],[108.96,1.205],[108.968,1.197],[109.002,1.215],[109.06,1.206],[109.115,1.242],[109.141,1.24],[109.066,1.199],[108.989,1.201],[108.965,1.17],[108.925,1.176],[108.905,1.163],[108.924,1.118],[108.935,1.12],[108.932,1.099],[108.95,1.067],[108.962,1.065],[108.98,0.989],[108.968,0.935],[108.939,0.885],[108.911,0.863],[108.893,0.871],[108.841,0.815],[108.852,0.786],[108.865,0.789],[108.881,0.764],[108.873,0.708],[108.897,0.694],[108.926,0.634],[108.927,0.563],[108.908,0.48],[108.941,0.445],[108.947,0.387],[108.915,0.336],[108.928,0.318],[109.015,0.297],[109.092,0.245],[109.127,0.192],[109.137,0.13],[109.189,0.066],[109.169,0.028],[109.162,-0.059],[109.094,-0.135],[109.077,-0.203],[109.055,-0.222],[109.056,-0.276],[109.103,-0.345],[109.115,-0.517],[109.147,-0.571],[109.189,-0.569],[109.186,-0.553],[109.202,-0.552],[109.252,-0.604],[109.376,-0.584],[109.385,-0.602],[109.351,-0.634],[109.36,-0.653],[109.391,-0.658],[109.457,-0.707],[109.459,-0.719],[109.47,-0.716],[109.445,-0.709],[109.459,-0.73],[109.539,-0.732],[109.469,-0.754],[109.398,-0.708],[109.319,-0.705],[109.248,-0.662],[109.239,-0.795],[109.257,-0.849],[109.307,-0.906],[109.397,-0.933],[109.419,-0.916],[109.403,-0.896],[109.421,-0.913],[109.432,-0.896],[109.422,-0.873],[109.406,-0.87],[109.448,-0.849],[109.439,-0.857],[109.455,-0.866],[109.553,-0.885],[109.59,-0.903],[109.613,-0.972],[109.623,-0.978],[109.628,-0.967],[109.651,-0.999],[109.669,-0.997],[109.682,-1.013],[109.698,-0.988],[109.734,-0.967],[109.732,-0.988],[109.765,-0.996],[109.769,-1.035],[109.804,-1.049],[109.819,-1.091],[109.867,-1.094],[109.945,-1.126],[109.909,-1.21],[109.934,-1.218],[109.933,-1.233],[109.948,-1.239],[109.939,-1.252],[109.962,-1.277],[109.993,-1.274],[110.017,-1.287],[110.062,-1.347],[110.074,-1.405],[110.036,-1.525],[110.032,-1.667],[109.972,-1.752],[109.954,-1.763],[109.931,-1.757],[109.941,-1.777],[109.91,-1.77],[109.915,-1.812],[109.901,-1.828],[109.922,-1.856],[110.065,-1.929],[110.092,-1.963],[110.118,-2.032],[110.11,-2.15],[110.085,-2.181],[110.093,-2.223],[110.063,-2.245],[110.094,-2.244],[110.138,-2.303],[110.149,-2.428],[110.181,-2.454],[110.185,-2.498],[110.2,-2.519],[110.185,-2.589],[110.149,-2.621],[110.159,-2.635],[110.211,-2.645],[110.233,-2.693],[110.22,-2.738],[110.259,-2.762],[110.261,-2.824],[110.224,-2.886],[110.261,-2.963],[110.306,-2.996],[110.375,-2.926],[110.469,-2.871],[110.572,-2.838],[110.616,-2.876],[110.639,-2.99],[110.611,-2.992],[110.658,-3.042],[110.727,-3.004],[110.749,-2.952],[110.774,-2.926],[110.893,-2.872],[110.969,-2.856],[111.012,-2.795],[111.065,-2.786],[111.136,-2.751],[111.171,-2.706],[111.165,-2.673],[111.136,-2.671],[111.119,-2.653],[111.137,-2.612],[111.106,-2.485],[111.104,-2.425],[111.071,-2.302],[111.032,-2.244],[111.08,-2.159],[111.038,-2.074],[111.081,-2.049],[111.085,-1.995],[111.03,-1.983],[111.004,-1.991],[110.981,-1.977],[110.975,-1.955],[110.997,-1.91],[110.976,-1.883],[110.982,-1.829],[111.014,-1.78],[111.006,-1.699],[110.977,-1.668],[110.939,-1.713],[110.914,-1.718],[110.887,-1.682],[110.86,-1.676],[110.858,-1.631],[110.909,-1.586],[110.952,-1.578],[110.984,-1.538],[111.014,-1.563],[111.059,-1.536],[111.078,-1.563],[111.119,-1.553],[111.123,-1.532],[111.107,-1.493],[111.147,-1.473],[111.168,-1.477],[111.175,-1.508],[111.192,-1.514],[111.185,-1.432],[111.207,-1.441],[111.22,-1.409],[111.279,-1.425],[111.275,-1.406],[111.297,-1.399],[111.327,-1.336],[111.361,-1.319],[111.379,-1.278],[111.4,-1.277],[111.409,-1.241],[111.485,-1.232],[111.573,-1.2],[111.556,-1.168],[111.571,-1.139],[111.554,-1.111],[111.571,-1.076],[111.622,-1.048],[111.614,-1.003],[111.625,-0.985],[111.718,-0.945],[111.73,-0.924],[111.854,-0.905],[111.872,-0.864],[111.919,-0.871],[111.902,-0.832],[111.91,-0.773],[111.954,-0.819],[112.029,-0.796],[112.035,-0.78],[112.014,-0.721],[112.023,-0.703],[112.158,-0.729],[112.147,-0.68],[112.159,-0.684],[112.161,-0.655],[112.197,-0.616],[112.218,-0.616],[112.244,-0.635],[112.302,-0.733],[112.329,-0.704],[112.344,-0.718],[112.365,-0.713],[112.433,-0.673],[112.449,-0.679],[112.456,-0.722],[112.475,-0.732],[112.488,-0.693],[112.585,-0.691],[112.627,-0.656],[112.684,-0.653],[112.699,-0.622],[112.743,-0.62],[112.742,-0.583],[112.753,-0.569],[112.845,-0.572],[112.887,-0.535],[112.975,-0.511],[112.992,-0.488],[113.062,-0.5],[113.111,-0.486],[113.143,-0.446],[113.158,-0.469],[113.186,-0.467],[113.2,-0.5],[113.218,-0.503],[113.267,-0.423],[113.263,-0.388],[113.208,-0.338],[113.225,-0.33],[113.236,-0.294],[113.273,-0.269],[113.284,-0.242],[113.356,-0.219],[113.386,-0.181],[113.387,-0.164],[113.409,-0.162],[113.419,-0.141],[113.397,-0.125],[113.419,-0.112],[113.44,-0.064],[113.417,-0.045],[113.437,0.015],[113.41,0.047],[113.419,0.125],[113.328,0.177],[113.271,0.242],[113.343,0.279],[113.413,0.264],[113.461,0.281],[113.586,0.405],[113.658,0.443],[113.672,0.504],[113.771,0.566],[113.776,0.589],[113.804,0.611],[113.811,0.645],[113.84,0.668]]]]}},{"type":"Feature","properties":{"code":"62","name":"Central Kalimantan"},"geometry":{"type":"MultiPolygon","coordinates":[[[[110.731,-2.997],[110.801,-2.977],[110.971,-3.067],[111.177,-2.998],[111.343,-2.909],[111.386,-2.921],[111.41,-2.907],[111.489,-2.945],[111.527,-2.979],[111.548,-3.023],[111.634,-2.959],[111.691,-2.943],[111.707,-2.904],[111.691,-2.92],[111.67,-2.895],[111.709,-2.851],[111.762,-2.907],[111.823,-3.03],[111.799,-3.202],[111.816,-3.303],[111.813,-3.417],[111.785,-3.49],[111.767,-3.504],[111.793,-3.529],[111.844,-3.541],[111.903,-3.541],[112.045,-3.428],[112.203,-3.332],[112.261,-3.313],[112.337,-3.316],[112.388,-3.337],[112.432,-3.36],[112.479,-3.414],[112.562,-3.445],[112.568,-3.433],[112.642,-3.404],[112.684,-3.363],[112.918,-3.242],[113.042,-3.13],[112.992,-3.165],[112.968,-3.158],[112.942,-3.112],[112.984,-3.046],[113.012,-3.033],[113.033,-2.975],[113.046,-2.974],[113.06,-3.011],[113.103,-3.034],[113.089,-3.035],[113.198,-3.094],[113.342,-3.279],[113.319,-3.23],[113.349,-3.266],[113.367,-3.271],[113.364,-3.251],[113.374,-3.244],[113.367,-3.254],[113.38,-3.257],[113.38,-3.234],[113.414,-3.218],[113.433,-3.169],[113.447,-3.176],[113.534,-3.156],[113.542,-3.138],[113.547,-3.155],[113.585,-3.141],[113.58,-3.162],[113.604,-3.166],[113.612,-3.191],[113.633,-3.297],[113.611,-3.396],[113.581,-3.442],[113.628,-3.465],[113.724,-3.468],[113.821,-3.45],[113.961,-3.366],[114.045,-3.347],[114.052,-3.316],[114.111,-3.371],[114.176,-3.392],[114.243,-3.369],[114.252,-3.397],[114.31,-3.439],[114.312,-3.451],[114.35,-3.456],[114.352,-3.409],[114.398,-3.257],[114.478,-3.127],[114.498,-3.001],[114.591,-2.821],[114.664,-2.802],[114.679,-2.783],[114.669,-2.755],[114.68,-2.741],[114.717,-2.743],[114.761,-2.722],[114.789,-2.678],[114.798,-2.592],[114.868,-2.516],[114.863,-2.48],[114.876,-2.464],[114.914,-2.452],[115.206,-2.241],[115.241,-2.198],[115.265,-2.226],[115.291,-2.226],[115.3,-2.144],[115.325,-2.109],[115.325,-2.085],[115.278,-2.001],[115.351,-1.93],[115.31,-1.807],[115.354,-1.662],[115.401,-1.435],[115.487,-1.423],[115.524,-1.43],[115.64,-1.369],[115.689,-1.366],[115.754,-1.31],[115.77,-1.23],[115.848,-1.162],[115.797,-1.111],[115.757,-1.133],[115.744,-1.09],[115.698,-1.055],[115.674,-1.054],[115.652,-0.992],[115.578,-0.942],[115.501,-0.847],[115.41,-0.826],[115.385,-0.808],[115.369,-0.768],[115.352,-0.582],[115.296,-0.489],[115.246,-0.445],[115.26,-0.393],[115.24,-0.377],[115.228,-0.297],[115.253,-0.291],[115.252,-0.256],[115.238,-0.237],[115.271,-0.185],[115.27,-0.146],[115.321,-0.095],[115.301,-0.032],[115.244,-0.053],[115.229,-0.072],[115.195,-0.073],[115.156,-0.102],[115.144,-0.137],[115.082,-0.152],[115.042,-0.19],[114.993,-0.185],[114.99,-0.173],[114.935,-0.188],[114.92,-0.133],[114.925,-0.094],[114.896,-0.027],[114.895,0.044],[114.835,0.079],[114.809,0.071],[114.788,0.097],[114.811,0.158],[114.802,0.179],[114.826,0.197],[114.835,0.229],[114.862,0.238],[114.908,0.319],[114.942,0.334],[114.955,0.315],[115.018,0.33],[115.05,0.303],[115.051,0.317],[115.132,0.388],[115.136,0.43],[115.095,0.47],[115.008,0.618],[114.978,0.748],[114.908,0.795],[114.905,0.775],[114.864,0.739],[114.876,0.702],[114.848,0.716],[114.824,0.753],[114.784,0.735],[114.76,0.744],[114.711,0.707],[114.695,0.714],[114.7,0.729],[114.658,0.707],[114.615,0.642],[114.604,0.648],[114.587,0.629],[114.538,0.631],[114.541,0.598],[114.519,0.566],[114.459,0.571],[114.428,0.544],[114.433,0.51],[114.412,0.496],[114.316,0.545],[114.223,0.532],[114.197,0.542],[114.187,0.571],[114.148,0.588],[114.173,0.625],[114.155,0.668],[114.108,0.703],[114.066,0.694],[114.005,0.655],[113.979,0.67],[113.889,0.645],[113.879,0.662],[113.84,0.668],[113.811,0.645],[113.804,0.611],[113.776,0.589],[113.771,0.566],[113.672,0.504],[113.658,0.443],[113.586,0.405],[113.461,0.281],[113.413,0.264],[113.343,0.279],[113.271,0.242],[113.328,0.177],[113.419,0.125],[113.41,0.047],[113.437,0.015],[113.417,-0.045],[113.44,-0.064],[113.419,-0.112],[113.397,-0.125],[113.419,-0.141],[113.409,-0.162],[113.387,-0.164],[113.386,-0.181],[113.356,-0.219],[113.284,-0.242],[113.273,-0.269],[113.236,-0.294],[113.225,-0.33],[113.208,-0.338],[113.263,-0.388],[113.267,-0.423],[113.218,-0.503],[113.2,-0.5],[113.186,-0.467],[113.158,-0.469],[113.143,-0.446],[113.111,-0.486],[113.062,-0.5],[112.992,-0.488],[112.975,-0.511],[112.887,-0.535],[112.845,-0.572],[112.753,-0.569],[112.742,-0.583],[112.743,-0.62],[112.699,-0.622],[112.684,-0.653],[112.627,-0.656],[112.585,-0.691],[112.488,-0.693],[112.475,-0.732],[112.456,-0.722],[112.449,-0.679],[112.433,-0.673],[112.365,-0.713],[112.344,-0.718],[112.329,-0.704],[112.302,-0.733],[112.244,-0.635],[112.218,-0.616],[112.197,-0.616],[112.161,-0.655],[112.159,-0.684],[112.147,-0.68],[112.158,-0.729],[112.023,-0.703],[112.014,-0.721],[112.035,-0.78],[112.029,-0.796],[111.954,-0.819],[111.91,-0.773],[111.902,-0.832],[111.919,-0.871],[111.872,-0.864],[111.854,-0.905],[111.73,-0.924],[111.718,-0.945],[111.625,-0.985],[111.614,-1.003],[111.622,-1.048],[111.571,-1.076],[111.554,-1.111],[111.571,-1.139],[111.556,-1.168],[111.573,-1.2],[111.485,-1.232],[111.409,-1.241],[111.4,-1.277],[111.379,-1.278],[111.361,-1.319],[111.327,-1.336],[111.297,-1.399],[111.275,-1.406],[111.279,-1.425],[111.22,-1.409],[111.207,-1.441],[111.185,-1.432],[111.192,-1.514],[111.175,-1.508],[111.168,-1.477],[111.147,-1.473],[111.107,-1.493],[111.123,-1.532],[111.119,-1.553],[111.078,-1.563],[111.059,-1.536],[111.014,-1.563],[110.984,-1.538],[110.952,-1.578],[110.909,-1.586],[110.858,-1.631],[110.86,-1.676],[110.887,-1.682],[110.914,-1.718],[110.939,-1.713],[110.977,-1.668],[111.006,-1.699],[111.014,-1.78],[110.982,-1.829],[110.976,-1.883],[110.997,-1.91],[110.975,-1.955],[110.981,-1.977],[111.004,-1.991],[111.03,-1.983],[111.085,-1.995],[111.081,-2.049],[111.038,-2.074],[111.08,-2.159],[111.032,-2.244],[111.071,-2.302],[111.104,-2.425],[111.106,-2.485],[111.137,-2.612],[111.119,-2.653],[111.136,-2.671],[111.165,-2.673],[111.173,-2.69],[111.136,-2.751],[111.065,-2.786],[111.012,-2.795],[110.969,-2.856],[110.893,-2.872],[110.774,-2.926],[110.749,-2.952],[110.731,-2.997]]]]}},{"type":"Feature","properties":{"code":"63","name":"South Kalimantan"},"geometry":{"type":"MultiPolygon","coordinates":[[[[116.062,-3.866],[116.057,-3.904],[116.08,-3.924],[116.051,-3.989],[116.058,-4.007],[116.039,-4.024],[116.048,-4.062],[116.062,-4.026],[116.068,-4.035],[116.08,-4.026],[116.074,-4.04],[116.086,-4.039],[116.085,-4.057],[116.098,-4.055],[116.084,-4.07],[116.095,-4.07],[116.091,-4.085],[116.116,-4.022],[116.143,-4.035],[116.173,-3.997],[116.21,-3.985],[116.19,-3.973],[116.209,-3.952],[116.244,-3.942],[116.274,-3.907],[116.31,-3.917],[116.297,-3.849],[116.271,-3.816],[116.278,-3.798],[116.314,-3.774],[116.339,-3.728],[116.315,-3.729],[116.3,-3.712],[116.301,-3.645],[116.29,-3.611],[116.306,-3.59],[116.271,-3.544],[116.291,-3.507],[116.313,-3.507],[116.314,-3.474],[116.305,-3.444],[116.25,-3.374],[116.28,-3.214],[116.268,-3.221],[116.255,-3.21],[116.138,-3.306],[116.115,-3.304],[116.073,-3.448],[116.038,-3.482],[116.045,-3.545],[116.031,-3.591],[116.009,-3.614],[116.005,-3.682],[116.077,-3.811],[116.078,-3.847],[116.062,-3.849],[116.062,-3.866]]],[[[116.368,-3.651],[116.382,-3.651],[116.386,-3.628],[116.399,-3.627],[116.407,-3.53],[116.435,-3.421],[116.431,-3.368],[116.408,-3.36],[116.391,-3.413],[116.339,-3.459],[116.312,-3.555],[116.342,-3.567],[116.368,-3.651]]],[[[114.353,-3.447],[114.393,-3.451],[114.391,-3.464],[114.4,-3.449],[114.406,-3.469],[114.429,-3.48],[114.425,-3.494],[114.499,-3.511],[114.514,-3.543],[114.571,-3.573],[114.612,-3.64],[114.623,-3.701],[114.604,-3.83],[114.639,-4.039],[114.637,-4.061],[114.624,-4.066],[114.629,-4.152],[114.619,-4.161],[114.662,-4.178],[114.708,-4.171],[115.005,-4.014],[115.251,-3.908],[115.662,-3.739],[115.716,-3.732],[115.847,-3.627],[115.971,-3.607],[115.996,-3.565],[115.973,-3.562],[115.984,-3.57],[115.993,-3.556],[115.993,-3.518],[116.015,-3.483],[116.007,-3.433],[116.024,-3.411],[116.032,-3.363],[116.049,-3.352],[116.085,-3.282],[116.185,-3.242],[116.168,-3.167],[116.207,-3.129],[116.274,-3.13],[116.27,-3.114],[116.182,-3.059],[116.177,-2.998],[116.136,-2.975],[116.111,-2.996],[116.085,-2.99],[116.123,-2.96],[116.102,-2.933],[116.132,-2.889],[116.12,-2.871],[116.134,-2.859],[116.122,-2.821],[116.138,-2.816],[116.155,-2.9],[116.209,-2.942],[116.214,-3.002],[116.271,-3.002],[116.364,-2.879],[116.369,-2.662],[116.416,-2.579],[116.392,-2.584],[116.359,-2.562],[116.359,-2.55],[116.323,-2.58],[116.312,-2.535],[116.336,-2.534],[116.353,-2.518],[116.398,-2.528],[116.422,-2.501],[116.451,-2.502],[116.476,-2.512],[116.481,-2.572],[116.512,-2.562],[116.531,-2.537],[116.523,-2.518],[116.554,-2.419],[116.435,-2.371],[116.358,-2.357],[116.244,-2.362],[116.198,-2.336],[116.011,-2.325],[115.967,-2.293],[115.96,-2.32],[115.934,-2.325],[115.918,-2.345],[115.896,-2.338],[115.888,-2.379],[115.874,-2.377],[115.852,-2.397],[115.836,-2.387],[115.816,-2.325],[115.836,-2.301],[115.818,-2.294],[115.804,-2.265],[115.809,-2.245],[115.781,-2.198],[115.792,-2.104],[115.812,-2.092],[115.818,-2.066],[115.789,-2.051],[115.735,-2.058],[115.706,-2.036],[115.73,-2.008],[115.7,-1.987],[115.732,-1.889],[115.727,-1.787],[115.701,-1.731],[115.687,-1.732],[115.667,-1.707],[115.677,-1.658],[115.668,-1.639],[115.652,-1.642],[115.629,-1.606],[115.637,-1.547],[115.613,-1.535],[115.6,-1.547],[115.582,-1.524],[115.553,-1.544],[115.537,-1.532],[115.543,-1.491],[115.571,-1.483],[115.591,-1.442],[115.647,-1.388],[115.675,-1.394],[115.654,-1.422],[115.671,-1.444],[115.708,-1.415],[115.723,-1.377],[115.745,-1.36],[115.757,-1.302],[115.689,-1.366],[115.64,-1.369],[115.524,-1.43],[115.487,-1.423],[115.401,-1.435],[115.354,-1.662],[115.31,-1.807],[115.351,-1.93],[115.278,-2.001],[115.325,-2.085],[115.325,-2.109],[115.3,-2.144],[115.291,-2.226],[115.265,-2.226],[115.241,-2.198],[115.206,-2.241],[114.914,-2.452],[114.876,-2.464],[114.863,-2.48],[114.868,-2.516],[114.798,-2.592],[114.789,-2.678],[114.761,-2.722],[114.717,-2.743],[114.68,-2.741],[114.669,-2.755],[114.679,-2.783],[114.664,-2.802],[114.591,-2.821],[114.498,-3.001],[114.478,-3.127],[114.398,-3.257],[114.352,-3.409],[114.353,-3.447]]]]}},{"type":"Feature","properties":{"code":"64","name":"East Kalimantan"},"geometry":{"type":"MultiPolygon","coordinates":[[[[115.756,-1.303],[115.745,-1.36],[115.723,-1.377],[115.708,-1.415],[115.671,-1.444],[115.654,-1.422],[115.675,-1.394],[115.647,-1.388],[115.591,-1.442],[115.571,-1.483],[115.543,-1.491],[115.537,-1.532],[115.553,-1.544],[115.582,-1.524],[115.6,-1.547],[115.613,-1.535],[115.637,-1.547],[115.629,-1.606],[115.652,-1.642],[115.668,-1.639],[115.677,-1.658],[115.667,-1.707],[115.687,-1.732],[115.701,-1.731],[115.727,-1.787],[115.732,-1.889],[115.7,-1.987],[115.73,-2.008],[115.706,-2.036],[115.735,-2.058],[115.789,-2.051],[115.818,-2.066],[115.812,-2.092],[115.792,-2.104],[115.781,-2.198],[115.809,-2.245],[115.804,-2.265],[115.818,-2.294],[115.836,-2.301],[115.816,-2.325],[115.836,-2.387],[115.852,-2.397],[115.874,-2.377],[115.888,-2.379],[115.896,-2.338],[115.918,-2.345],[115.934,-2.325],[115.96,-2.32],[115.967,-2.293],[116.011,-2.325],[116.198,-2.336],[116.244,-2.362],[116.358,-2.357],[116.435,-2.371],[116.554,-2.419],[116.591,-2.253],[116.587,-2.169],[116.569,-2.198],[116.546,-2.209],[116.553,-2.175],[116.518,-2.165],[116.524,-2.151],[116.504,-2.109],[116.435,-2.133],[116.389,-2.127],[116.392,-2.116],[116.357,-2.124],[116.349,-2.114],[116.393,-2.084],[116.455,-2.065],[116.46,-2.051],[116.457,-1.917],[116.442,-1.873],[116.421,-1.864],[116.452,-1.813],[116.451,-1.769],[116.397,-1.77],[116.388,-1.758],[116.264,-1.81],[116.218,-1.795],[116.209,-1.776],[116.25,-1.781],[116.284,-1.731],[116.309,-1.725],[116.315,-1.701],[116.384,-1.685],[116.535,-1.621],[116.559,-1.601],[116.533,-1.505],[116.545,-1.458],[116.59,-1.426],[116.762,-1.358],[116.759,-1.288],[116.779,-1.245],[116.747,-1.219],[116.71,-1.216],[116.767,-1.187],[116.746,-1.179],[116.749,-1.157],[116.702,-1.122],[116.714,-1.105],[116.701,-1.086],[116.721,-1.097],[116.727,-1.075],[116.717,-1.068],[116.729,-1.067],[116.736,-1.024],[116.777,-0.979],[116.753,-1.014],[116.729,-1.102],[116.751,-1.107],[116.746,-1.114],[116.781,-1.146],[116.784,-1.212],[116.798,-1.216],[116.819,-1.201],[116.811,-1.282],[116.884,-1.277],[117.004,-1.196],[117.023,-1.141],[117.066,-1.106],[117.156,-0.97],[117.197,-0.932],[117.248,-0.91],[117.295,-0.871],[117.315,-0.871],[117.34,-0.912],[117.406,-0.875],[117.442,-0.893],[117.43,-0.828],[117.446,-0.806],[117.488,-0.84],[117.513,-0.809],[117.552,-0.805],[117.561,-0.783],[117.601,-0.787],[117.612,-0.773],[117.605,-0.727],[117.515,-0.736],[117.462,-0.694],[117.472,-0.683],[117.529,-0.689],[117.525,-0.653],[117.563,-0.649],[117.569,-0.626],[117.55,-0.618],[117.554,-0.598],[117.58,-0.576],[117.581,-0.485],[117.619,-0.463],[117.628,-0.424],[117.602,-0.406],[117.557,-0.433],[117.53,-0.384],[117.54,-0.373],[117.526,-0.351],[117.494,-0.346],[117.492,-0.329],[117.453,-0.352],[117.452,-0.304],[117.426,-0.275],[117.417,-0.223],[117.443,-0.202],[117.478,-0.075],[117.519,-0.031],[117.506,0.002],[117.519,0.025],[117.502,0.04],[117.492,0.028],[117.49,0.041],[117.512,0.058],[117.487,0.063],[117.467,0.046],[117.477,0.083],[117.458,0.101],[117.486,0.083],[117.478,0.104],[117.501,0.101],[117.478,0.11],[117.506,0.107],[117.522,0.125],[117.508,0.159],[117.495,0.148],[117.495,0.159],[117.488,0.15],[117.478,0.158],[117.487,0.176],[117.506,0.175],[117.493,0.185],[117.519,0.198],[117.528,0.221],[117.516,0.243],[117.529,0.26],[117.516,0.269],[117.534,0.286],[117.522,0.321],[117.542,0.317],[117.552,0.335],[117.567,0.392],[117.557,0.408],[117.565,0.419],[117.554,0.422],[117.585,0.404],[117.606,0.42],[117.606,0.488],[117.634,0.515],[117.673,0.617],[117.71,0.624],[117.72,0.708],[117.754,0.755],[117.81,0.796],[117.873,0.808],[117.888,0.828],[117.916,0.836],[117.922,0.807],[117.959,0.794],[117.968,0.777],[118.03,0.781],[118.024,0.856],[117.97,0.956],[117.973,0.975],[117.999,0.993],[118.01,0.959],[118.057,0.94],[118.052,0.913],[118.063,0.904],[118.307,0.852],[118.34,0.84],[118.346,0.813],[118.386,0.802],[118.45,0.837],[118.549,0.81],[118.592,0.811],[118.621,0.845],[118.67,0.856],[118.698,0.845],[118.71,0.813],[118.724,0.823],[118.768,0.804],[118.795,0.812],[118.792,0.801],[118.856,0.877],[118.894,0.875],[118.908,0.904],[118.965,0.943],[118.987,0.988],[118.978,1.037],[118.918,1.065],[118.87,1.068],[118.858,1.051],[118.836,1.053],[118.831,1.098],[118.777,1.133],[118.788,1.136],[118.774,1.156],[118.758,1.147],[118.722,1.155],[118.764,1.159],[118.769,1.197],[118.714,1.249],[118.566,1.362],[118.516,1.356],[118.518,1.375],[118.508,1.376],[118.485,1.363],[118.484,1.383],[118.424,1.408],[118.431,1.422],[118.416,1.428],[118.428,1.433],[118.376,1.426],[118.423,1.448],[118.41,1.46],[118.411,1.487],[118.376,1.486],[118.386,1.501],[118.3,1.531],[118.165,1.628],[118.134,1.635],[118.053,1.73],[118.067,1.76],[118.049,1.783],[117.936,1.802],[117.898,1.837],[117.892,1.871],[117.871,1.881],[117.861,1.874],[117.879,1.973],[117.864,1.966],[117.839,2.008],[117.761,2.019],[117.845,2.043],[117.845,2.026],[117.858,2.023],[117.908,2.041],[117.914,2.098],[117.957,2.12],[117.956,2.131],[117.925,2.14],[117.937,2.179],[118.021,2.197],[118.102,2.285],[118.088,2.326],[118.045,2.38],[118.024,2.358],[118.001,2.435],[117.975,2.425],[117.951,2.385],[117.917,2.399],[117.876,2.392],[117.827,2.327],[117.781,2.336],[117.764,2.329],[117.738,2.347],[117.723,2.399],[117.7,2.415],[117.63,2.519],[117.608,2.522],[117.588,2.503],[117.561,2.522],[117.515,2.525],[117.469,2.552],[117.415,2.609],[117.393,2.598],[117.316,2.606],[117.252,2.578],[117.095,2.598],[117.037,2.524],[116.963,2.51],[116.862,2.464],[116.832,2.396],[116.811,2.379],[116.792,2.396],[116.781,2.449],[116.741,2.532],[116.649,2.457],[116.628,2.419],[116.601,2.426],[116.573,2.453],[116.535,2.448],[116.509,2.458],[116.497,2.398],[116.512,2.382],[116.511,2.346],[116.485,2.316],[116.486,2.286],[116.464,2.28],[116.423,2.305],[116.338,2.29],[116.3,2.233],[116.354,2.176],[116.355,2.157],[116.323,2.122],[116.301,2.124],[116.297,2.103],[116.264,2.109],[116.228,2.091],[116.237,2.016],[116.204,1.989],[116.183,1.894],[116.196,1.847],[116.135,1.661],[116.086,1.66],[116.044,1.606],[116.053,1.588],[116.048,1.556],[116.013,1.527],[115.982,1.535],[115.959,1.488],[115.923,1.481],[115.869,1.445],[115.868,1.409],[115.845,1.379],[115.777,1.358],[115.718,1.268],[115.638,1.286],[115.502,1.256],[115.436,1.223],[115.411,1.187],[115.425,1.162],[115.418,1.127],[115.383,1.101],[115.372,1.067],[115.33,1.059],[115.31,1.068],[115.287,1.046],[115.205,1.064],[115.177,1.117],[115.13,1.13],[115.046,1.115],[115.015,1.124],[114.993,1.159],[114.99,1.192],[114.937,1.182],[114.894,1.215],[114.844,1.17],[114.757,1.255],[114.722,1.268],[114.726,1.313],[114.697,1.358],[114.615,1.364],[114.6,1.394],[114.575,1.396],[114.562,1.432],[114.537,1.435],[114.496,1.477],[114.475,1.475],[114.409,1.521],[114.387,1.516],[114.383,1.492],[114.31,1.47],[114.301,1.456],[114.24,1.447],[114.223,1.416],[114.152,1.385],[114.153,1.313],[114.142,1.293],[114.161,1.266],[114.126,1.224],[114.14,1.199],[114.117,1.154],[114.099,1.149],[114.08,1.162],[114.046,1.132],[114.03,1.147],[113.986,1.144],[113.959,1.114],[113.942,1.063],[113.894,1.052],[113.892,1.023],[113.915,1.008],[113.918,0.987],[113.908,0.954],[113.88,0.928],[113.875,0.893],[113.926,0.838],[113.889,0.787],[113.895,0.739],[113.875,0.713],[113.844,0.706],[113.84,0.668],[113.879,0.662],[113.889,0.645],[113.979,0.67],[114.005,0.655],[114.066,0.694],[114.108,0.703],[114.165,0.647],[114.173,0.625],[114.148,0.588],[114.187,0.571],[114.188,0.549],[114.212,0.535],[114.316,0.545],[114.412,0.496],[114.433,0.51],[114.428,0.544],[114.459,0.571],[114.519,0.566],[114.541,0.598],[114.538,0.631],[114.587,0.629],[114.604,0.648],[114.615,0.642],[114.658,0.707],[114.7,0.729],[114.695,0.714],[114.711,0.707],[114.76,0.744],[114.784,0.735],[114.824,0.753],[114.848,0.716],[114.876,0.702],[114.864,0.739],[114.905,0.775],[114.908,0.795],[114.978,0.748],[115.008,0.618],[115.095,0.47],[115.136,0.43],[115.132,0.388],[115.051,0.317],[115.05,0.303],[115.018,0.33],[114.955,0.315],[114.942,0.334],[114.908,0.319],[114.862,0.238],[114.835,0.229],[114.826,0.197],[114.802,0.179],[114.811,0.158],[114.788,0.097],[114.809,0.071],[114.835,0.079],[114.895,0.044],[114.896,-0.027],[114.925,-0.094],[114.92,-0.133],[114.935,-0.188],[114.99,-0.173],[114.993,-0.185],[115.042,-0.19],[115.082,-0.152],[115.144,-0.137],[115.156,-0.102],[115.195,-0.073],[115.229,-0.072],[115.244,-0.053],[115.301,-0.032],[115.321,-0.095],[115.27,-0.146],[115.271,-0.185],[115.238,-0.237],[115.252,-0.256],[115.253,-0.291],[115.228,-0.297],[115.24,-0.377],[115.26,-0.393],[115.246,-0.445],[115.296,-0.489],[115.352,-0.582],[115.369,-0.768],[115.39,-0.816],[115.501,-0.847],[115.578,-0.942],[115.652,-0.992],[115.674,-1.054],[115.698,-1.055],[115.744,-1.09],[115.757,-1.133],[115.797,-1.111],[115.847,-1.155],[115.77,-1.23],[115.756,-1.303]]]]}},{"type":"Feature","properties":{"code":"65","name":"North Kalimantan"},"geometry":{"type":"MultiPolygon","coordinates":[[[[117.642,2.815],[117.681,2.798],[117.738,2.816],[117.693,2.853],[117.658,2.838],[117.642,2.815]]],[[[117.703,2.932],[117.581,2.91],[117.698,2.902],[117.714,2.906],[117.703,2.932]]],[[[118.001,2.435],[117.948,2.461],[117.79,2.644],[117.782,2.752],[117.747,2.755],[117.703,2.783],[117.618,2.797],[117.603,2.812],[117.61,2.823],[117.642,2.821],[117.686,2.862],[117.71,2.861],[117.721,2.889],[117.555,2.908],[117.566,2.921],[117.697,2.947],[117.666,2.99],[117.567,2.964],[117.621,3.018],[117.622,3.059],[117.571,3.046],[117.545,3.068],[117.516,3.068],[117.442,3.051],[117.447,3.082],[117.479,3.099],[117.452,3.123],[117.467,3.128],[117.446,3.161],[117.419,3.173],[117.399,3.159],[117.37,3.181],[117.32,3.169],[117.307,3.208],[117.378,3.23],[117.397,3.258],[117.414,3.249],[117.452,3.275],[117.518,3.275],[117.524,3.299],[117.507,3.321],[117.447,3.342],[117.436,3.372],[117.444,3.404],[117.485,3.432],[117.491,3.455],[117.518,3.481],[117.505,3.498],[117.485,3.492],[117.46,3.509],[117.442,3.504],[117.438,3.529],[117.371,3.562],[117.292,3.564],[117.279,3.588],[117.282,3.619],[117.392,3.64],[117.493,3.598],[117.516,3.62],[117.521,3.674],[117.587,3.631],[117.664,3.615],[117.716,3.64],[117.742,3.637],[117.768,3.682],[117.826,3.704],[117.835,3.794],[117.826,3.81],[117.757,3.869],[117.722,3.875],[117.705,3.86],[117.678,3.876],[117.683,3.916],[117.636,3.915],[117.598,3.934],[117.531,4.031],[117.472,4.081],[117.418,4.094],[117.431,4.134],[117.523,4.101],[117.543,4.136],[117.587,4.16],[117.591,4.174],[117.566,4.18],[117.529,4.161],[117.457,4.179],[117.406,4.254],[117.382,4.262],[117.371,4.286],[117.296,4.31],[117.246,4.374],[117.224,4.369],[117.197,4.336],[117.168,4.338],[117.151,4.354],[117.106,4.333],[117.042,4.347],[117.019,4.319],[117.005,4.323],[117.004,4.346],[116.965,4.338],[116.953,4.355],[116.908,4.369],[116.84,4.327],[116.811,4.351],[116.79,4.338],[116.752,4.389],[116.733,4.351],[116.702,4.333],[116.667,4.352],[116.63,4.334],[116.614,4.343],[116.612,4.377],[116.586,4.374],[116.568,4.408],[116.562,4.39],[116.536,4.376],[116.537,4.323],[116.486,4.337],[116.475,4.304],[116.441,4.289],[116.433,4.326],[116.349,4.391],[116.272,4.363],[116.251,4.38],[116.205,4.378],[116.171,4.393],[116.163,4.342],[116.131,4.331],[116.12,4.339],[116.079,4.276],[116.039,4.295],[116.036,4.329],[116.009,4.335],[116.007,4.348],[115.93,4.354],[115.908,4.392],[115.878,4.391],[115.862,4.343],[115.87,4.3],[115.824,4.262],[115.83,4.241],[115.801,4.226],[115.796,4.243],[115.766,4.251],[115.731,4.194],[115.705,4.198],[115.685,4.163],[115.677,4.09],[115.653,4.036],[115.642,3.966],[115.616,3.938],[115.581,3.942],[115.558,3.919],[115.584,3.885],[115.596,3.89],[115.62,3.869],[115.614,3.824],[115.579,3.747],[115.576,3.611],[115.591,3.579],[115.606,3.576],[115.611,3.513],[115.652,3.44],[115.619,3.409],[115.604,3.448],[115.58,3.45],[115.538,3.363],[115.541,3.33],[115.525,3.32],[115.529,3.285],[115.516,3.259],[115.533,3.24],[115.522,3.194],[115.567,3.162],[115.519,3.114],[115.52,3.058],[115.484,3.015],[115.453,3.028],[115.429,3.017],[115.406,2.982],[115.335,2.974],[115.323,3.012],[115.285,3.05],[115.249,2.967],[115.209,2.956],[115.152,2.914],[115.151,2.872],[115.09,2.823],[115.124,2.8],[115.142,2.803],[115.153,2.787],[115.138,2.772],[115.141,2.744],[115.092,2.698],[115.112,2.685],[115.117,2.647],[115.088,2.62],[115.087,2.604],[115.11,2.581],[115.172,2.606],[115.208,2.563],[115.212,2.539],[115.233,2.536],[115.237,2.506],[115.195,2.471],[115.18,2.482],[115.135,2.476],[115.099,2.443],[115.091,2.406],[115.046,2.408],[115.048,2.389],[115.034,2.394],[115.022,2.368],[114.994,2.351],[114.958,2.368],[114.946,2.319],[114.966,2.295],[114.935,2.283],[114.915,2.259],[114.864,2.272],[114.83,2.254],[114.816,2.266],[114.8,2.251],[114.79,2.204],[114.779,2.199],[114.78,2.145],[114.81,2.1],[114.793,2.086],[114.808,2.064],[114.793,2.05],[114.809,2.023],[114.856,2.046],[114.879,2.039],[114.881,2.018],[114.848,1.953],[114.879,1.915],[114.855,1.897],[114.816,1.893],[114.792,1.85],[114.766,1.851],[114.744,1.87],[114.716,1.856],[114.726,1.833],[114.692,1.808],[114.714,1.785],[114.705,1.762],[114.718,1.728],[114.711,1.671],[114.649,1.59],[114.614,1.574],[114.604,1.531],[114.611,1.501],[114.564,1.426],[114.575,1.396],[114.6,1.394],[114.615,1.364],[114.697,1.358],[114.726,1.313],[114.722,1.268],[114.757,1.255],[114.844,1.17],[114.894,1.215],[114.937,1.182],[114.99,1.192],[114.993,1.159],[115.021,1.122],[115.097,1.118],[115.13,1.13],[115.172,1.119],[115.196,1.091],[115.193,1.07],[115.264,1.047],[115.295,1.048],[115.31,1.068],[115.364,1.062],[115.383,1.101],[115.418,1.127],[115.425,1.162],[115.411,1.187],[115.436,1.223],[115.502,1.256],[115.638,1.286],[115.718,1.268],[115.777,1.358],[115.845,1.379],[115.868,1.409],[115.869,1.445],[115.923,1.481],[115.959,1.488],[115.982,1.535],[116.013,1.527],[116.048,1.556],[116.053,1.588],[116.044,1.606],[116.086,1.66],[116.135,1.661],[116.196,1.847],[116.183,1.894],[116.204,1.989],[116.237,2.016],[116.228,2.091],[116.264,2.109],[116.297,2.103],[116.301,2.124],[116.323,2.122],[116.355,2.157],[116.354,2.176],[116.3,2.233],[116.338,2.29],[116.423,2.305],[116.464,2.28],[116.486,2.286],[116.485,2.316],[116.511,2.346],[116.512,2.382],[116.497,2.398],[116.509,2.458],[116.535,2.448],[116.573,2.453],[116.601,2.426],[116.628,2.419],[116.649,2.457],[116.741,2.532],[116.781,2.449],[116.792,2.396],[116.811,2.379],[116.832,2.396],[116.862,2.464],[116.963,2.51],[117.037,2.524],[117.095,2.598],[117.252,2.578],[117.316,2.606],[117.393,2.598],[117.415,2.609],[117.469,2.552],[117.515,2.525],[117.561,2.522],[117.588,2.503],[117.608,2.522],[117.63,2.519],[117.7,2.415],[117.723,2.399],[117.738,2.347],[117.764,2.329],[117.781,2.336],[117.827,2.327],[117.876,2.392],[117.917,2.399],[117.951,2.385],[117.975,2.425],[118.001,2.435]]],[[[117.616,3.263],[117.624,3.251],[117.623,3.267],[117.633,3.262],[117.638,3.252],[117.628,3.246],[117.638,3.239],[117.656,3.252],[117.669,3.405],[117.662,3.42],[117.615,3.441],[117.547,3.442],[117.52,3.416],[117.519,3.366],[117.542,3.326],[117.595,3.28],[117.612,3.281],[117.616,3.263]]],[[[117.503,3.345],[117.498,3.405],[117.451,3.404],[117.452,3.349],[117.503,3.345]]],[[[117.639,4.139],[117.591,4.087],[117.601,4.013],[117.676,3.966],[117.723,3.987],[117.753,4.06],[117.668,4.145],[117.639,4.139]]],[[[117.684,4.166],[117.861,4.03],[117.906,4.041],[117.927,4.061],[117.918,4.079],[117.925,4.13],[117.9,4.166],[117.684,4.166]]],[[[117.615,3.48],[117.612,3.497],[117.56,3.523],[117.55,3.525],[117.55,3.506],[117.537,3.5],[117.548,3.471],[117.615,3.48]]],[[[117.872,3.479],[117.85,3.537],[117.801,3.59],[117.755,3.561],[117.761,3.515],[117.826,3.475],[117.835,3.458],[117.867,3.45],[117.872,3.479]]],[[[117.522,3.493],[117.532,3.489],[117.547,3.507],[117.545,3.527],[117.416,3.556],[117.416,3.542],[117.446,3.535],[117.442,3.51],[117.462,3.515],[117.485,3.498],[117.504,3.507],[117.522,3.493]]],[[[117.529,3.579],[117.506,3.585],[117.539,3.559],[117.625,3.537],[117.666,3.552],[117.598,3.582],[117.529,3.579]]],[[[117.351,3.588],[117.41,3.588],[117.435,3.563],[117.461,3.568],[117.456,3.583],[117.396,3.613],[117.292,3.598],[117.301,3.579],[117.351,3.588]]]]}}]}