{"type":"FeatureCollection","attribution":"© OpenStreetMap contributors, geoBoundaries (ODbL 1.0)","features":[{"type":"Feature","properties":{"code":"11","name":"Aceh"},"geometry":{"type":"MultiPolygon","coordinates":[[[[97.077,2.079],[97.114,2.003],[97.124,2.006],[97.119,2.036],[97.152,2.053],[97.164,2.072],[97.154,2.086],[97.125,2.11],[97.099,2.114],[97.099,2.091],[97.077,2.079]]],[[[96.617,2.113],[96.614,2.082],[96.635,2.061],[96.652,2.059],[96.688,2.086],[96.663,2.123],[96.617,2.113]]],[[[95.239,5.851],[95.258,5.842],[95.285,5.78],[95.33,5.773],[95.346,5.794],[95.346,5.827],[95.375,5.806],[95.374,5.847],[95.328,5.901],[95.311,5.894],[95.324,5.882],[95.315,5.866],[95.302,5.873],[95.304,5.841],[95.293,5.838],[95.216,5.907],[95.22,5.875],[95.239,5.851]]],[[[95.057,5.647],[95.078,5.657],[95.073,5.668],[95.144,5.666],[95.135,5.685],[95.105,5.695],[95.106,5.712],[95.075,5.722],[95.069,5.747],[95.03,5.751],[95.011,5.724],[95.046,5.737],[95.059,5.72],[95.039,5.707],[95.059,5.685],[95.044,5.671],[95.07,5.668],[95.057,5.647]]],[[[97.224,2.222],[97.222,2.206],[97.201,2.212],[97.195,2.202],[97.186,2.229],[97.179,2.217],[97.18,2.234],[97.121,2.226],[97.113,2.215],[97.174,2.178],[97.214,2.179],[97.223,2.156],[97.234,2.168],[97.231,2.15],[97.263,2.134],[97.269,2.105],[97.29,2.096],[97.314,2.057],[97.337,2.06],[97.328,2.041],[97.339,2.033],[97.36,2.093],[97.351,2.114],[97.337,2.117],[97.348,2.124],[97.339,2.165],[97.333,2.152],[97.323,2.163],[97.331,2.172],[97.311,2.175],[97.293,2.2],[97.306,2.208],[97.298,2.23],[97.237,2.235],[97.224,2.222]]],[[[95.717,2.812],[95.692,2.775],[95.696,2.755],[95.751,2.73],[95.765,2.711],[95.755,2.699],[95.792,2.666],[95.799,2.629],[95.82,2.646],[95.839,2.622],[95.859,2.637],[95.889,2.621],[95.887,2.602],[95.915,2.599],[95.95,2.569],[95.98,2.588],[95.997,2.566],[96.011,2.591],[96.056,2.563],[96.076,2.57],[96.119,2.542],[96.129,2.52],[96.161,2.512],[96.229,2.442],[96.315,2.418],[96.313,2.386],[96.336,2.39],[96.335,2.372],[96.314,2.359],[96.344,2.341],[96.387,2.349],[96.411,2.331],[96.444,2.329],[96.499,2.363],[96.477,2.397],[96.487,2.412],[96.467,2.428],[96.467,2.461],[96.431,2.491],[96.426,2.477],[96.409,2.511],[96.399,2.487],[96.406,2.456],[96.397,2.458],[96.403,2.465],[96.385,2.456],[96.393,2.475],[96.369,2.487],[96.365,2.517],[96.339,2.524],[96.351,2.546],[96.253,2.585],[96.241,2.615],[96.162,2.678],[96.185,2.65],[96.191,2.62],[96.183,2.616],[96.155,2.645],[96.118,2.636],[96.102,2.65],[96.092,2.684],[96.152,2.689],[96.146,2.711],[96.128,2.7],[96.117,2.711],[96.118,2.735],[96.09,2.747],[96.08,2.736],[96.084,2.756],[96.1,2.754],[96.027,2.756],[95.981,2.791],[95.976,2.811],[95.931,2.825],[95.917,2.844],[95.911,2.828],[95.879,2.833],[95.887,2.841],[95.874,2.847],[95.884,2.859],[95.877,2.872],[95.913,2.845],[95.918,2.868],[95.904,2.896],[95.836,2.915],[95.836,2.895],[95.823,2.899],[95.826,2.92],[95.8,2.912],[95.807,2.928],[95.791,2.929],[95.771,2.907],[95.763,2.861],[95.789,2.826],[95.733,2.832],[95.717,2.812]]],[[[98.252,4.289],[98.28,4.331],[98.277,4.396],[98.286,4.418],[98.252,4.445],[98.236,4.436],[98.238,4.461],[98.163,4.507],[98.087,4.523],[98.065,4.554],[98.04,4.527],[98.04,4.548],[98.002,4.531],[97.985,4.536],[97.976,4.564],[98.009,4.605],[98.019,4.587],[98.019,4.61],[97.964,4.668],[97.967,4.682],[97.977,4.673],[97.903,4.89],[97.845,4.906],[97.646,5.075],[97.657,5.085],[97.654,5.116],[97.594,5.143],[97.548,5.204],[97.556,5.211],[97.501,5.248],[97.202,5.141],[97.142,5.155],[97.154,5.175],[97.148,5.193],[97.118,5.217],[97.101,5.215],[97.103,5.225],[96.985,5.262],[96.88,5.249],[96.851,5.277],[96.612,5.21],[96.501,5.202],[96.466,5.237],[96.391,5.21],[96.258,5.264],[96.185,5.261],[96.077,5.294],[95.922,5.422],[95.892,5.463],[95.887,5.505],[95.664,5.595],[95.615,5.627],[95.531,5.614],[95.518,5.595],[95.457,5.651],[95.431,5.656],[95.278,5.551],[95.247,5.549],[95.225,5.576],[95.194,5.528],[95.241,5.468],[95.23,5.433],[95.243,5.424],[95.253,5.381],[95.241,5.339],[95.228,5.359],[95.236,5.319],[95.219,5.324],[95.213,5.28],[95.219,5.271],[95.23,5.288],[95.243,5.279],[95.247,5.266],[95.233,5.257],[95.254,5.236],[95.242,5.222],[95.307,5.169],[95.303,5.112],[95.321,5.09],[95.308,5.081],[95.367,5.026],[95.357,5],[95.382,4.968],[95.366,4.948],[95.401,4.893],[95.398,4.87],[95.426,4.836],[95.412,4.819],[95.448,4.805],[95.454,4.783],[95.492,4.751],[95.54,4.656],[95.556,4.655],[95.562,4.668],[95.583,4.657],[95.567,4.627],[95.586,4.632],[95.61,4.62],[95.728,4.517],[95.921,4.32],[96.024,4.194],[96.046,4.21],[96.127,4.124],[96.14,4.142],[96.167,4.127],[96.289,3.992],[96.384,3.849],[96.497,3.75],[96.546,3.731],[96.672,3.746],[96.77,3.739],[96.868,3.69],[96.903,3.602],[97.003,3.546],[97.169,3.258],[97.18,3.25],[97.194,3.26],[97.224,3.231],[97.244,3.236],[97.259,3.22],[97.316,3.056],[97.373,2.986],[97.445,2.925],[97.485,2.921],[97.54,2.884],[97.579,2.892],[97.595,2.879],[97.649,2.678],[97.663,2.403],[97.778,2.24],[97.788,2.234],[97.8,2.27],[97.865,2.248],[97.861,2.265],[97.897,2.281],[97.889,2.257],[97.868,2.249],[97.88,2.243],[97.914,2.272],[97.948,2.271],[98.096,2.196],[98.145,2.153],[98.161,2.177],[98.188,2.323],[98.157,2.38],[98.154,2.415],[98.112,2.424],[98.109,2.471],[98.08,2.527],[98.084,2.632],[98.129,2.662],[98.103,2.687],[98.086,2.738],[98.112,2.79],[98.092,2.821],[98.043,2.826],[98.007,2.89],[97.955,2.902],[97.957,2.973],[97.941,2.991],[97.944,3.04],[97.931,3.063],[97.975,3.07],[97.981,3.123],[97.944,3.162],[97.927,3.225],[97.872,3.249],[97.985,3.276],[98.019,3.299],[98.027,3.331],[98.003,3.37],[97.973,3.373],[97.95,3.392],[97.932,3.445],[97.956,3.481],[97.921,3.498],[97.904,3.557],[97.867,3.575],[97.869,3.612],[97.799,3.726],[97.91,3.823],[97.921,3.844],[97.9,3.891],[97.904,3.911],[97.949,3.891],[97.958,3.929],[98.024,3.973],[98.03,4.026],[98.046,4.037],[98.036,4.054],[98.041,4.104],[98.053,4.108],[98.054,4.143],[98.074,4.15],[98.059,4.191],[98.091,4.197],[98.095,4.217],[98.069,4.256],[98.122,4.256],[98.146,4.266],[98.147,4.29],[98.2,4.302],[98.215,4.287],[98.252,4.289]]]]}},{"type":"Feature","properties":{"code":"12","name":"North Sumatra"},"geometry":{"type":"MultiPolygon","coordinates":[[[[98.438,-0.247],[98.414,-0.243],[98.445,-0.298],[98.435,-0.314],[98.409,-0.313],[98.384,-0.343],[98.383,-0.38],[98.373,-0.38],[98.377,-0.458],[98.355,-0.471],[98.35,-0.514],[98.332,-0.524],[98.324,-0.507],[98.288,-0.523],[98.393,-0.562],[98.418,-0.598],[98.427,-0.588],[98.417,-0.557],[98.43,-0.532],[98.453,-0.545],[98.478,-0.536],[98.471,-0.57],[98.489,-0.55],[98.493,-0.572],[98.506,-0.556],[98.48,-0.506],[98.506,-0.493],[98.514,-0.414],[98.5,-0.392],[98.515,-0.396],[98.522,-0.38],[98.507,-0.373],[98.516,-0.372],[98.485,-0.296],[98.438,-0.247]]],[[[98.338,0],[98.294,-0.021],[98.341,-0.034],[98.354,-0.049],[98.389,-0.103],[98.368,-0.107],[98.505,-0.292],[98.557,-0.39],[98.538,-0.342],[98.568,-0.331],[98.574,-0.283],[98.549,-0.248],[98.493,-0.21],[98.496,-0.189],[98.475,-0.148],[98.489,-0.137],[98.471,-0.094],[98.419,-0.037],[98.415,0.002],[98.397,-0.014],[98.389,0.006],[98.338,0]]],[[[98.853,0.108],[98.82,0.152],[98.775,0.169],[98.76,0.154],[98.715,0.161],[98.72,0.148],[98.71,0.175],[98.669,0.169],[98.612,0.181],[98.567,0.173],[98.525,0.142],[98.536,0.102],[98.595,0.089],[98.604,0.104],[98.62,0.087],[98.63,0.094],[98.646,0.079],[98.629,0.065],[98.673,0.079],[98.736,0.07],[98.783,0.096],[98.854,0.081],[98.853,0.108]]],[[[98.459,1.701],[98.443,1.67],[98.461,1.638],[98.501,1.624],[98.541,1.636],[98.552,1.62],[98.593,1.624],[98.611,1.613],[98.587,1.646],[98.588,1.665],[98.57,1.651],[98.572,1.669],[98.548,1.682],[98.546,1.649],[98.535,1.64],[98.515,1.657],[98.495,1.654],[98.506,1.678],[98.486,1.7],[98.459,1.701]]],[[[97.78,0.561],[97.828,0.544],[97.82,0.568],[97.837,0.558],[97.853,0.589],[97.901,0.625],[97.887,0.743],[97.912,0.801],[97.896,0.823],[97.894,0.856],[97.908,0.904],[97.947,0.954],[97.897,1.055],[97.875,1.052],[97.857,1.065],[97.799,1.151],[97.772,1.15],[97.751,1.169],[97.687,1.182],[97.678,1.217],[97.543,1.39],[97.541,1.42],[97.516,1.427],[97.481,1.479],[97.44,1.473],[97.416,1.522],[97.412,1.504],[97.396,1.499],[97.369,1.531],[97.34,1.537],[97.336,1.521],[97.352,1.503],[97.346,1.481],[97.292,1.448],[97.271,1.417],[97.203,1.401],[97.19,1.419],[97.181,1.396],[97.136,1.432],[97.114,1.418],[97.061,1.415],[97.071,1.391],[97.096,1.408],[97.155,1.364],[97.209,1.285],[97.206,1.268],[97.22,1.275],[97.231,1.256],[97.254,1.259],[97.248,1.25],[97.266,1.242],[97.258,1.218],[97.287,1.202],[97.302,1.179],[97.296,1.168],[97.321,1.159],[97.379,1.06],[97.408,0.98],[97.406,0.94],[97.417,0.95],[97.486,0.94],[97.511,0.922],[97.509,0.909],[97.552,0.887],[97.56,0.867],[97.604,0.838],[97.606,0.814],[97.633,0.8],[97.636,0.761],[97.655,0.745],[97.653,0.714],[97.667,0.702],[97.662,0.676],[97.696,0.619],[97.686,0.584],[97.712,0.56],[97.731,0.566],[97.737,0.582],[97.744,0.554],[97.78,0.561]]],[[[98.145,2.153],[98.264,2.06],[98.272,2.041],[98.264,2.028],[98.281,2.029],[98.283,2.043],[98.311,2.033],[98.34,2.046],[98.368,2.021],[98.359,2.002],[98.376,2.016],[98.464,1.987],[98.497,1.954],[98.496,1.936],[98.512,1.94],[98.564,1.868],[98.603,1.844],[98.674,1.743],[98.734,1.718],[98.732,1.768],[98.717,1.754],[98.702,1.77],[98.67,1.768],[98.683,1.775],[98.671,1.78],[98.696,1.771],[98.707,1.786],[98.728,1.775],[98.742,1.783],[98.797,1.725],[98.782,1.717],[98.787,1.691],[98.825,1.678],[98.82,1.661],[98.842,1.637],[98.827,1.604],[98.799,1.593],[98.808,1.567],[98.783,1.578],[98.762,1.527],[98.731,1.567],[98.713,1.561],[98.763,1.496],[98.784,1.424],[98.851,1.316],[98.842,1.278],[98.912,1.12],[98.928,1.041],[98.974,0.922],[98.986,0.853],[98.971,0.847],[98.995,0.821],[99.012,0.825],[99.058,0.742],[99.062,0.69],[99.047,0.671],[99.066,0.659],[99.059,0.638],[99.046,0.638],[99.051,0.622],[99.067,0.632],[99.086,0.62],[99.107,0.578],[99.108,0.534],[99.089,0.529],[99.095,0.503],[99.113,0.511],[99.129,0.478],[99.141,0.398],[99.109,0.346],[99.146,0.333],[99.161,0.289],[99.157,0.266],[99.142,0.265],[99.139,0.251],[99.166,0.236],[99.191,0.288],[99.236,0.328],[99.264,0.343],[99.312,0.344],[99.404,0.492],[99.503,0.54],[99.533,0.52],[99.587,0.517],[99.64,0.547],[99.675,0.475],[99.717,0.454],[99.774,0.484],[99.83,0.462],[99.91,0.5],[99.915,0.569],[99.864,0.666],[99.818,0.712],[99.791,0.78],[99.704,0.856],[99.699,0.883],[99.713,0.895],[99.764,0.864],[99.858,0.865],[100.048,0.796],[100.135,0.75],[100.181,0.754],[100.174,0.82],[100.215,0.873],[100.221,1.153],[100.213,1.18],[100.144,1.227],[100.121,1.307],[100.085,1.343],[100.072,1.391],[100.406,1.562],[100.44,1.607],[100.434,1.667],[100.379,1.812],[100.296,1.905],[100.291,1.941],[100.321,2.088],[100.307,2.216],[100.276,2.317],[100.277,2.38],[100.315,2.556],[100.238,2.639],[100.22,2.705],[100.164,2.706],[100.138,2.685],[100.122,2.646],[100.143,2.524],[100.174,2.505],[100.149,2.474],[100.185,2.47],[100.201,2.436],[100.222,2.443],[100.198,2.433],[100.184,2.465],[100.149,2.467],[100.148,2.486],[100.165,2.501],[100.143,2.51],[100.081,2.473],[100.094,2.492],[100.134,2.51],[100.092,2.615],[100.097,2.673],[100.086,2.712],[100.035,2.741],[99.969,2.705],[100.001,2.701],[100.031,2.668],[99.997,2.647],[100.034,2.631],[100.036,2.608],[100.01,2.597],[100.013,2.583],[99.996,2.571],[99.972,2.591],[100.001,2.579],[100.006,2.601],[100.031,2.617],[99.991,2.643],[100.015,2.671],[99.965,2.678],[99.949,2.697],[99.993,2.782],[99.987,2.96],[99.979,2.943],[99.919,2.987],[99.891,3.039],[99.859,3.038],[99.768,3.139],[99.759,3.168],[99.69,3.205],[99.568,3.234],[99.538,3.253],[99.487,3.32],[99.486,3.346],[99.42,3.387],[99.365,3.399],[99.339,3.424],[99.324,3.412],[99.33,3.427],[99.29,3.478],[99.278,3.472],[99.21,3.528],[99.13,3.564],[98.956,3.676],[98.871,3.689],[98.781,3.725],[98.748,3.767],[98.706,3.772],[98.72,3.795],[98.703,3.782],[98.692,3.788],[98.709,3.8],[98.689,3.892],[98.671,3.909],[98.604,3.914],[98.572,3.946],[98.553,3.944],[98.558,3.968],[98.537,3.992],[98.54,4.011],[98.514,4.019],[98.489,4.01],[98.491,4.03],[98.436,4.041],[98.388,4.077],[98.311,4.072],[98.298,4.106],[98.274,4.121],[98.162,4.151],[98.186,4.176],[98.245,4.187],[98.255,4.203],[98.24,4.27],[98.252,4.289],[98.215,4.287],[98.2,4.302],[98.147,4.29],[98.146,4.266],[98.122,4.256],[98.089,4.263],[98.067,4.253],[98.095,4.217],[98.091,4.197],[98.059,4.191],[98.074,4.15],[98.054,4.143],[98.053,4.108],[98.041,4.104],[98.036,4.054],[98.046,4.037],[98.03,4.026],[98.024,3.973],[97.958,3.929],[97.949,3.891],[97.904,3.911],[97.9,3.891],[97.921,3.844],[97.91,3.823],[97.799,3.726],[97.869,3.612],[97.867,3.575],[97.904,3.557],[97.921,3.498],[97.956,3.481],[97.932,3.445],[97.95,3.392],[97.973,3.373],[98.003,3.37],[98.027,3.331],[98.019,3.299],[97.985,3.276],[97.872,3.249],[97.927,3.225],[97.944,3.162],[97.981,3.123],[97.975,3.07],[97.931,3.063],[97.944,3.04],[97.941,2.991],[97.957,2.973],[97.955,2.902],[98.007,2.89],[98.043,2.826],[98.092,2.821],[98.112,2.79],[98.086,2.738],[98.103,2.687],[98.129,2.662],[98.084,2.632],[98.08,2.527],[98.109,2.471],[98.112,2.424],[98.154,2.415],[98.157,2.38],[98.188,2.323],[98.161,2.177],[98.145,2.153]]]]}},{"type":"Feature","properties":{"code":"13","name":"West Sumatra"},"geometry":{"type":"MultiPolygon","coordinates":[[[[100.018,-2.812],[100.015,-2.83],[99.997,-2.831],[100.021,-2.851],[100.042,-2.852],[100.04,-2.823],[100.051,-2.815],[100.075,-2.842],[100.093,-2.829],[100.145,-2.841],[100.142,-2.808],[100.218,-2.776],[100.223,-2.752],[100.173,-2.648],[100.13,-2.625],[100.1,-2.588],[100.072,-2.58],[99.993,-2.503],[99.971,-2.513],[99.976,-2.565],[99.964,-2.571],[99.989,-2.609],[99.977,-2.63],[100.013,-2.683],[100,-2.7],[100.013,-2.742],[99.984,-2.774],[100.018,-2.812]]],[[[100.177,-2.812],[100.203,-2.934],[100.181,-2.963],[100.192,-2.971],[100.189,-2.991],[100.223,-3.023],[100.233,-3.058],[100.255,-3.048],[100.248,-3.061],[100.263,-3.068],[100.248,-3.082],[100.265,-3.091],[100.27,-3.079],[100.292,-3.081],[100.333,-3.133],[100.341,-3.163],[100.327,-3.178],[100.37,-3.228],[100.35,-3.23],[100.326,-3.208],[100.334,-3.243],[100.379,-3.256],[100.38,-3.288],[100.417,-3.308],[100.442,-3.346],[100.465,-3.347],[100.464,-3.313],[100.375,-3.18],[100.393,-3.198],[100.411,-3.194],[100.397,-3.176],[100.359,-3.163],[100.472,-3.143],[100.458,-3.115],[100.469,-3.046],[100.459,-3.052],[100.448,-3.025],[100.465,-3.034],[100.471,-3.02],[100.436,-3.006],[100.354,-2.9],[100.285,-2.845],[100.268,-2.843],[100.236,-2.784],[100.189,-2.791],[100.177,-2.812]]],[[[98.847,-0.937],[98.793,-0.957],[98.74,-0.959],[98.712,-0.945],[98.663,-0.98],[98.656,-1.09],[98.614,-1.185],[98.596,-1.199],[98.603,-1.226],[98.804,-1.519],[98.837,-1.586],[98.825,-1.616],[98.861,-1.644],[98.876,-1.677],[99.108,-1.812],[99.141,-1.804],[99.146,-1.788],[99.17,-1.779],[99.241,-1.797],[99.263,-1.773],[99.24,-1.74],[99.24,-1.699],[99.221,-1.664],[99.233,-1.683],[99.241,-1.677],[99.216,-1.64],[99.2,-1.641],[99.208,-1.624],[99.22,-1.625],[99.262,-1.735],[99.28,-1.752],[99.292,-1.75],[99.286,-1.727],[99.302,-1.719],[99.275,-1.662],[99.293,-1.653],[99.27,-1.646],[99.275,-1.633],[99.29,-1.637],[99.26,-1.593],[99.23,-1.609],[99.208,-1.577],[99.198,-1.579],[99.195,-1.558],[99.209,-1.553],[99.194,-1.544],[99.203,-1.52],[99.195,-1.509],[99.185,-1.521],[99.181,-1.503],[99.148,-1.485],[99.115,-1.44],[99.171,-1.47],[99.162,-1.456],[99.167,-1.431],[99.145,-1.398],[99.128,-1.409],[99.129,-1.386],[99.114,-1.397],[99.102,-1.388],[99.117,-1.378],[99.098,-1.362],[99.078,-1.291],[99.069,-1.303],[99.051,-1.295],[99.065,-1.289],[99.053,-1.273],[99.072,-1.269],[99.068,-1.252],[99.053,-1.229],[99.026,-1.222],[99.041,-1.205],[99.009,-1.166],[99.002,-1.118],[98.959,-1.077],[98.958,-1.091],[98.949,-1.09],[98.936,-1.062],[98.92,-0.988],[98.952,-1.013],[98.93,-0.934],[98.899,-0.942],[98.902,-0.927],[98.911,-0.941],[98.912,-0.914],[98.898,-0.906],[98.847,-0.937]]],[[[99.844,-2.348],[99.846,-2.336],[99.813,-2.297],[99.782,-2.292],[99.78,-2.255],[99.749,-2.228],[99.736,-2.188],[99.721,-2.183],[99.702,-2.085],[99.637,-2.034],[99.616,-2.04],[99.626,-2.029],[99.598,-2.028],[99.584,-2.04],[99.588,-2.025],[99.562,-2.042],[99.566,-2.063],[99.546,-2.075],[99.573,-2.148],[99.537,-2.144],[99.528,-2.154],[99.575,-2.246],[99.589,-2.222],[99.598,-2.229],[99.593,-2.253],[99.609,-2.246],[99.598,-2.26],[99.601,-2.284],[99.615,-2.293],[99.626,-2.273],[99.633,-2.29],[99.642,-2.281],[99.672,-2.288],[99.738,-2.345],[99.783,-2.344],[99.799,-2.371],[99.838,-2.364],[99.843,-2.397],[99.86,-2.403],[99.862,-2.38],[99.844,-2.348]]],[[[101.293,-2.277],[101.307,-2.218],[101.273,-2.082],[101.24,-2.017],[101.19,-1.985],[101.139,-1.905],[101.123,-1.677],[101.162,-1.698],[101.188,-1.677],[101.221,-1.715],[101.268,-1.691],[101.314,-1.694],[101.416,-1.671],[101.43,-1.69],[101.447,-1.689],[101.496,-1.674],[101.562,-1.576],[101.699,-1.473],[101.719,-1.427],[101.689,-1.391],[101.711,-1.376],[101.717,-1.354],[101.687,-1.278],[101.71,-1.241],[101.814,-1.215],[101.849,-1.176],[101.886,-1.1],[101.873,-1.095],[101.86,-1.114],[101.825,-1.094],[101.822,-0.977],[101.795,-0.966],[101.752,-0.969],[101.739,-0.952],[101.65,-0.934],[101.646,-0.908],[101.597,-0.85],[101.535,-0.815],[101.503,-0.811],[101.482,-0.781],[101.418,-0.739],[101.396,-0.739],[101.408,-0.721],[101.396,-0.7],[101.376,-0.703],[101.355,-0.687],[101.36,-0.659],[101.333,-0.653],[101.308,-0.627],[101.254,-0.625],[101.229,-0.588],[101.199,-0.58],[101.162,-0.536],[101.124,-0.524],[101.106,-0.502],[101.069,-0.501],[101.025,-0.398],[101.043,-0.384],[101.036,-0.349],[100.996,-0.314],[100.945,-0.312],[100.915,-0.326],[100.925,-0.343],[100.908,-0.372],[100.861,-0.332],[100.847,-0.339],[100.833,-0.32],[100.839,-0.291],[100.805,-0.267],[100.776,-0.214],[100.783,-0.191],[100.762,-0.141],[100.767,-0.12],[100.796,-0.122],[100.793,-0.1],[100.754,-0.08],[100.734,-0.043],[100.755,-0.04],[100.777,-0.012],[100.809,-0.041],[100.827,-0.031],[100.822,-0.014],[100.845,0.015],[100.85,0.055],[100.824,0.118],[100.842,0.19],[100.813,0.268],[100.755,0.255],[100.669,0.331],[100.578,0.37],[100.497,0.445],[100.46,0.445],[100.404,0.416],[100.364,0.41],[100.259,0.455],[100.162,0.626],[100.159,0.657],[100.208,0.706],[100.181,0.754],[100.135,0.75],[100.048,0.796],[99.858,0.865],[99.764,0.864],[99.713,0.895],[99.699,0.883],[99.704,0.856],[99.791,0.78],[99.818,0.712],[99.864,0.666],[99.915,0.569],[99.91,0.5],[99.83,0.462],[99.774,0.484],[99.717,0.454],[99.675,0.475],[99.64,0.547],[99.587,0.517],[99.533,0.52],[99.503,0.54],[99.404,0.492],[99.327,0.357],[99.301,0.338],[99.264,0.343],[99.236,0.328],[99.191,0.288],[99.166,0.229],[99.19,0.254],[99.21,0.216],[99.237,0.207],[99.243,0.217],[99.263,0.202],[99.284,0.235],[99.353,0.231],[99.377,0.208],[99.372,0.192],[99.392,0.186],[99.398,0.15],[99.484,0.129],[99.606,0.072],[99.742,-0.031],[99.763,-0.068],[99.748,-0.145],[99.798,-0.22],[99.818,-0.3],[99.887,-0.347],[99.916,-0.385],[99.914,-0.403],[100.052,-0.517],[100.082,-0.55],[100.128,-0.646],[100.325,-0.851],[100.343,-0.889],[100.348,-0.969],[100.365,-1.005],[100.382,-0.993],[100.391,-1.009],[100.378,-1.04],[100.399,-1.029],[100.414,-1.058],[100.409,-1.075],[100.398,-1.066],[100.389,-1.076],[100.382,-1.064],[100.364,-1.076],[100.385,-1.116],[100.361,-1.127],[100.367,-1.138],[100.348,-1.172],[100.379,-1.146],[100.38,-1.178],[100.431,-1.202],[100.421,-1.225],[100.436,-1.231],[100.433,-1.255],[100.407,-1.237],[100.401,-1.271],[100.423,-1.277],[100.452,-1.258],[100.489,-1.299],[100.544,-1.31],[100.568,-1.337],[100.563,-1.347],[100.575,-1.358],[100.561,-1.372],[100.578,-1.37],[100.593,-1.394],[100.558,-1.406],[100.584,-1.421],[100.561,-1.442],[100.597,-1.493],[100.624,-1.503],[100.62,-1.527],[100.644,-1.622],[100.685,-1.66],[100.864,-1.928],[100.88,-2.049],[100.867,-2.095],[100.821,-2.154],[100.875,-2.244],[100.892,-2.327],[100.994,-2.432],[101.025,-2.484],[101.155,-2.39],[101.245,-2.345],[101.293,-2.277]]]]}},{"type":"Feature","properties":{"code":"14","name":"Riau"},"geometry":{"type":"MultiPolygon","coordinates":[[[[102.656,1.011],[102.736,1.04],[102.778,1.019],[102.811,1.035],[102.817,1.072],[102.862,1.071],[102.882,1.058],[102.868,1.06],[102.874,1.045],[102.839,1.054],[102.794,1.028],[102.804,0.995],[102.881,0.968],[103.071,0.834],[103.12,0.83],[103.155,0.85],[103.152,0.9],[103.003,1.072],[102.902,1.122],[102.781,1.158],[102.735,1.152],[102.678,1.101],[102.656,1.032],[102.624,1.018],[102.635,1.006],[102.656,1.011]]],[[[103.15,0.637],[103.139,0.558],[103.167,0.499],[103.203,0.52],[103.288,0.533],[103.3,0.555],[103.299,0.617],[103.248,0.688],[103.217,0.702],[103.182,0.697],[103.154,0.676],[103.15,0.637]]],[[[102.607,1.034],[102.615,1.045],[102.538,1.129],[102.479,1.123],[102.459,1.066],[102.499,0.945],[102.609,1.005],[102.607,1.034]]],[[[103.485,-0.77],[103.464,-0.737],[103.389,-0.718],[103.397,-0.687],[103.421,-0.666],[103.401,-0.639],[103.431,-0.614],[103.42,-0.603],[103.439,-0.519],[103.466,-0.506],[103.507,-0.516],[103.542,-0.504],[103.604,-0.435],[103.59,-0.405],[103.597,-0.396],[103.698,-0.355],[103.787,-0.342],[103.71,-0.257],[103.665,-0.254],[103.642,-0.228],[103.538,-0.216],[103.515,-0.202],[103.45,-0.214],[103.438,-0.196],[103.462,-0.175],[103.454,-0.161],[103.427,-0.145],[103.405,-0.149],[103.438,-0.143],[103.471,-0.172],[103.501,-0.146],[103.454,-0.112],[103.446,-0.089],[103.463,-0.112],[103.527,-0.123],[103.584,-0.104],[103.595,-0.092],[103.556,-0.072],[103.568,-0.067],[103.565,-0.055],[103.58,-0.063],[103.593,-0.052],[103.595,-0.025],[103.631,-0.049],[103.663,-0.052],[103.686,-0.022],[103.814,-0.005],[103.784,0.064],[103.77,0.187],[103.713,0.305],[103.605,0.352],[103.584,0.395],[103.407,0.526],[103.328,0.544],[103.299,0.511],[103.248,0.502],[103.188,0.461],[103.108,0.456],[103.097,0.493],[103.021,0.592],[102.916,0.712],[102.883,0.733],[102.764,0.733],[102.674,0.756],[102.571,0.737],[102.51,0.748],[102.422,0.8],[102.339,0.901],[102.263,0.956],[102.227,1.002],[102.192,1.087],[102.209,1.189],[102.196,1.217],[102.164,1.231],[102.15,1.268],[102.159,1.362],[102.148,1.379],[102.089,1.402],[102.005,1.458],[101.753,1.664],[101.665,1.665],[101.602,1.638],[101.561,1.637],[101.478,1.683],[101.41,1.698],[101.357,1.778],[101.364,1.829],[101.337,1.892],[101.323,1.997],[101.305,2.039],[101.267,2.08],[101.18,2.126],[101.078,2.211],[101.054,2.26],[101.057,2.28],[101.04,2.292],[100.866,2.298],[100.798,2.289],[100.766,2.27],[100.766,2.209],[100.781,2.184],[100.789,2.119],[100.877,2.044],[100.892,1.965],[100.881,1.96],[100.783,2.075],[100.566,2.157],[100.475,2.227],[100.395,2.321],[100.315,2.556],[100.277,2.38],[100.276,2.317],[100.307,2.216],[100.321,2.088],[100.291,1.941],[100.296,1.905],[100.379,1.812],[100.434,1.667],[100.44,1.607],[100.406,1.562],[100.072,1.391],[100.085,1.343],[100.121,1.307],[100.144,1.227],[100.213,1.18],[100.221,1.153],[100.215,0.873],[100.174,0.82],[100.181,0.754],[100.208,0.706],[100.159,0.657],[100.162,0.626],[100.259,0.455],[100.299,0.433],[100.364,0.41],[100.404,0.416],[100.46,0.445],[100.497,0.445],[100.578,0.37],[100.669,0.331],[100.755,0.255],[100.813,0.268],[100.842,0.19],[100.824,0.118],[100.85,0.055],[100.845,0.015],[100.822,-0.014],[100.827,-0.031],[100.809,-0.041],[100.777,-0.012],[100.755,-0.04],[100.734,-0.043],[100.754,-0.08],[100.793,-0.1],[100.796,-0.122],[100.767,-0.12],[100.762,-0.141],[100.783,-0.191],[100.776,-0.214],[100.805,-0.267],[100.839,-0.291],[100.833,-0.32],[100.847,-0.339],[100.861,-0.332],[100.908,-0.372],[100.925,-0.343],[100.915,-0.326],[100.945,-0.312],[100.996,-0.314],[101.036,-0.349],[101.043,-0.384],[101.025,-0.398],[101.069,-0.501],[101.106,-0.502],[101.124,-0.524],[101.162,-0.536],[101.199,-0.58],[101.229,-0.588],[101.254,-0.625],[101.308,-0.627],[101.333,-0.653],[101.36,-0.659],[101.355,-0.687],[101.376,-0.703],[101.396,-0.7],[101.408,-0.721],[101.396,-0.739],[101.418,-0.739],[101.482,-0.781],[101.503,-0.811],[101.535,-0.815],[101.597,-0.85],[101.646,-0.908],[101.65,-0.934],[101.739,-0.952],[101.752,-0.969],[101.795,-0.966],[101.845,-0.983],[101.855,-0.965],[101.907,-0.951],[101.921,-0.911],[101.947,-0.9],[101.962,-0.912],[101.984,-0.88],[102.008,-0.879],[102.042,-0.9],[102.062,-0.89],[102.117,-0.921],[102.139,-0.899],[102.165,-0.899],[102.188,-0.918],[102.188,-0.942],[102.204,-0.949],[102.256,-0.922],[102.307,-0.917],[102.326,-0.963],[102.386,-0.993],[102.375,-1.006],[102.382,-1.027],[102.443,-1.025],[102.484,-1.081],[102.543,-1.083],[102.557,-1.098],[102.617,-1.095],[102.638,-1.12],[102.667,-1.109],[102.685,-1.079],[102.73,-1.072],[102.755,-1.024],[102.779,-1.027],[102.77,-1.008],[102.79,-0.977],[102.913,-0.886],[103.009,-0.755],[103.092,-0.757],[103.126,-0.746],[103.346,-0.786],[103.36,-0.803],[103.41,-0.774],[103.485,-0.77]]],[[[102.656,0.788],[102.853,0.793],[102.918,0.776],[102.99,0.693],[103.021,0.685],[103.049,0.719],[103.056,0.786],[103.046,0.826],[102.935,0.896],[102.879,0.952],[102.798,0.98],[102.765,1.01],[102.696,0.936],[102.748,0.908],[102.76,0.92],[102.776,0.914],[102.791,0.94],[102.777,0.913],[102.759,0.917],[102.747,0.906],[102.715,0.931],[102.699,0.927],[102.696,0.951],[102.745,0.998],[102.741,1.022],[102.641,0.989],[102.59,1.001],[102.56,0.97],[102.481,0.927],[102.448,0.935],[102.408,0.885],[102.413,0.854],[102.511,0.786],[102.589,0.766],[102.656,0.788]]],[[[102.473,1.251],[102.375,1.325],[102.296,1.409],[102.213,1.412],[102.229,1.347],[102.206,1.276],[102.244,1.207],[102.249,1.157],[102.237,1.114],[102.248,1.073],[102.283,0.994],[102.392,0.911],[102.418,0.922],[102.436,0.949],[102.485,0.945],[102.44,1.064],[102.463,1.159],[102.486,1.199],[102.485,1.238],[102.473,1.251]]],[[[102.387,1.334],[102.496,1.253],[102.508,1.256],[102.488,1.439],[102.496,1.469],[102.461,1.518],[102.335,1.552],[102.182,1.57],[102.065,1.605],[102.002,1.601],[101.999,1.584],[102.027,1.539],[102.107,1.467],[102.186,1.438],[102.295,1.429],[102.387,1.334]]],[[[100.876,2.035],[100.818,2.09],[100.793,2.095],[100.87,1.996],[100.883,1.998],[100.876,2.035]]],[[[100.735,2.262],[100.712,2.227],[100.721,2.176],[100.742,2.144],[100.785,2.121],[100.778,2.185],[100.752,2.254],[100.735,2.262]]],[[[101.388,1.907],[101.452,1.729],[101.616,1.688],[101.731,1.759],[101.751,1.879],[101.786,1.937],[101.781,1.98],[101.749,2.031],[101.726,2.045],[101.717,2.084],[101.656,2.125],[101.604,2.1],[101.568,2.065],[101.578,2.032],[101.558,2.045],[101.522,2.036],[101.466,2.063],[101.406,2.023],[101.396,1.993],[101.403,1.942],[101.388,1.907]]]]}},{"type":"Feature","properties":{"code":"15","name":"Jambi"},"geometry":{"type":"MultiPolygon","coordinates":[[[[102.063,-2.77],[102.088,-2.767],[102.124,-2.727],[102.228,-2.692],[102.236,-2.64],[102.256,-2.623],[102.288,-2.626],[102.319,-2.654],[102.36,-2.65],[102.402,-2.687],[102.462,-2.703],[102.481,-2.695],[102.502,-2.702],[102.534,-2.678],[102.592,-2.683],[102.615,-2.662],[102.623,-2.624],[102.702,-2.59],[102.72,-2.559],[102.735,-2.582],[102.793,-2.539],[102.813,-2.483],[102.877,-2.418],[102.869,-2.391],[102.846,-2.387],[102.84,-2.372],[102.874,-2.311],[102.922,-2.333],[102.96,-2.329],[103.022,-2.35],[103.035,-2.343],[103.037,-2.316],[103.055,-2.318],[103.066,-2.341],[103.122,-2.357],[103.205,-2.321],[103.201,-2.27],[103.161,-2.234],[103.184,-2.19],[103.219,-2.172],[103.223,-2.137],[103.273,-2.148],[103.302,-2.237],[103.323,-2.242],[103.331,-2.269],[103.37,-2.287],[103.403,-2.334],[103.449,-2.358],[103.456,-2.336],[103.444,-2.314],[103.457,-2.297],[103.456,-2.263],[103.442,-2.213],[103.453,-2.178],[103.501,-2.175],[103.558,-2.14],[103.518,-2.102],[103.537,-1.904],[103.621,-1.835],[103.72,-1.801],[103.822,-1.796],[103.85,-1.755],[103.878,-1.743],[103.916,-1.745],[103.952,-1.774],[104.064,-1.773],[104.093,-1.786],[104.229,-1.741],[104.274,-1.748],[104.345,-1.738],[104.365,-1.71],[104.356,-1.671],[104.374,-1.64],[104.427,-1.631],[104.489,-1.661],[104.438,-1.509],[104.458,-1.423],[104.457,-1.337],[104.392,-1.217],[104.409,-1.16],[104.405,-1.125],[104.371,-1.028],[104.359,-1.021],[104.338,-1.042],[104.266,-1.043],[104.206,-1.07],[104.182,-1.05],[104.133,-1.048],[104.023,-0.999],[103.912,-0.982],[103.828,-1.02],[103.813,-1.06],[103.838,-1.089],[103.81,-1.065],[103.803,-0.994],[103.754,-0.992],[103.556,-0.856],[103.551,-0.813],[103.49,-0.803],[103.428,-0.83],[103.338,-0.833],[103.432,-0.821],[103.477,-0.796],[103.485,-0.77],[103.41,-0.774],[103.36,-0.803],[103.346,-0.786],[103.118,-0.746],[103.092,-0.757],[103.009,-0.755],[102.913,-0.886],[102.79,-0.977],[102.77,-1.008],[102.779,-1.027],[102.755,-1.024],[102.73,-1.072],[102.685,-1.079],[102.645,-1.12],[102.617,-1.095],[102.557,-1.098],[102.543,-1.083],[102.484,-1.081],[102.443,-1.025],[102.382,-1.027],[102.375,-1.006],[102.386,-0.993],[102.326,-0.963],[102.307,-0.917],[102.256,-0.922],[102.204,-0.949],[102.188,-0.942],[102.188,-0.918],[102.165,-0.899],[102.139,-0.899],[102.117,-0.921],[102.062,-0.89],[102.042,-0.9],[102.008,-0.879],[101.984,-0.88],[101.962,-0.912],[101.947,-0.9],[101.921,-0.911],[101.907,-0.951],[101.855,-0.965],[101.845,-0.983],[101.822,-0.977],[101.825,-1.094],[101.86,-1.114],[101.873,-1.095],[101.886,-1.1],[101.849,-1.176],[101.814,-1.215],[101.722,-1.234],[101.687,-1.278],[101.717,-1.354],[101.689,-1.399],[101.719,-1.427],[101.689,-1.488],[101.562,-1.576],[101.492,-1.677],[101.43,-1.69],[101.413,-1.671],[101.314,-1.694],[101.268,-1.691],[101.221,-1.715],[101.188,-1.677],[101.162,-1.698],[101.123,-1.677],[101.13,-1.851],[101.145,-1.918],[101.19,-1.985],[101.24,-2.017],[101.273,-2.082],[101.307,-2.218],[101.293,-2.277],[101.557,-2.449],[101.548,-2.569],[101.563,-2.567],[101.569,-2.545],[101.604,-2.537],[101.629,-2.546],[101.67,-2.529],[101.733,-2.608],[101.861,-2.724],[101.924,-2.741],[101.931,-2.731],[101.99,-2.723],[102.063,-2.77]]]]}},{"type":"Feature","properties":{"code":"16","name":"South Sumatra"},"geometry":{"type":"MultiPolygon","coordinates":[[[[103.779,-4.795],[103.815,-4.788],[103.826,-4.798],[103.824,-4.821],[103.866,-4.846],[103.866,-4.877],[103.844,-4.909],[103.85,-4.918],[103.916,-4.892],[103.927,-4.876],[103.96,-4.913],[104.048,-4.9],[104.06,-4.886],[104.112,-4.92],[104.153,-4.915],[104.194,-4.861],[104.219,-4.86],[104.233,-4.879],[104.277,-4.865],[104.303,-4.884],[104.334,-4.871],[104.359,-4.839],[104.368,-4.798],[104.321,-4.752],[104.32,-4.701],[104.289,-4.68],[104.3,-4.642],[104.342,-4.601],[104.323,-4.456],[104.37,-4.353],[104.445,-4.301],[104.476,-4.308],[104.481,-4.291],[104.622,-4.217],[104.643,-4.246],[104.756,-4.245],[104.79,-4.262],[104.814,-4.244],[104.873,-4.234],[104.873,-4.219],[104.968,-4.172],[105.012,-4.173],[105.063,-4.121],[105.063,-4.097],[105.093,-4.048],[105.12,-4.047],[105.106,-4.015],[105.135,-3.99],[105.139,-3.936],[105.164,-3.939],[105.176,-3.91],[105.204,-3.892],[105.23,-3.89],[105.244,-3.907],[105.277,-3.877],[105.293,-3.841],[105.282,-3.828],[105.284,-3.798],[105.304,-3.794],[105.318,-3.734],[105.332,-3.724],[105.349,-3.747],[105.357,-3.797],[105.388,-3.779],[105.432,-3.784],[105.433,-3.827],[105.481,-3.822],[105.494,-3.842],[105.524,-3.84],[105.513,-3.873],[105.526,-3.895],[105.547,-3.881],[105.573,-3.903],[105.563,-3.929],[105.584,-3.937],[105.597,-3.923],[105.606,-3.933],[105.61,-3.943],[105.59,-3.954],[105.612,-3.967],[105.631,-4.005],[105.608,-4.057],[105.626,-4.04],[105.661,-4.046],[105.646,-4.066],[105.651,-4.086],[105.663,-4.091],[105.681,-4.076],[105.686,-4.099],[105.71,-4.104],[105.702,-4.137],[105.726,-4.131],[105.745,-4.145],[105.767,-4.134],[105.776,-4.111],[105.808,-4.124],[105.821,-4.158],[105.842,-4.163],[105.865,-4.03],[105.961,-3.831],[105.926,-3.775],[105.851,-3.741],[105.832,-3.712],[105.824,-3.594],[105.884,-3.422],[105.899,-3.42],[105.931,-3.358],[105.982,-3.314],[106.078,-3.264],[106.097,-3.229],[106.05,-3.127],[106.057,-3.064],[106.044,-2.988],[106.01,-2.967],[105.974,-2.965],[105.958,-2.944],[105.932,-2.962],[105.885,-2.966],[105.853,-2.953],[105.787,-2.873],[105.779,-2.682],[105.7,-2.685],[105.635,-2.644],[105.606,-2.573],[105.609,-2.505],[105.633,-2.434],[105.622,-2.391],[105.579,-2.419],[105.556,-2.4],[105.488,-2.388],[105.297,-2.372],[105.211,-2.327],[105.115,-2.378],[105.065,-2.362],[105.044,-2.391],[105.025,-2.393],[105.045,-2.377],[105.041,-2.356],[104.999,-2.331],[104.911,-2.334],[104.918,-2.292],[104.903,-2.28],[104.849,-2.284],[104.839,-2.337],[104.772,-2.391],[104.731,-2.385],[104.71,-2.367],[104.728,-2.352],[104.744,-2.36],[104.792,-2.278],[104.842,-2.25],[104.903,-2.192],[104.905,-2.146],[104.879,-2.053],[104.83,-2.005],[104.719,-1.994],[104.694,-2.011],[104.684,-2.055],[104.673,-2.02],[104.687,-1.993],[104.658,-1.964],[104.611,-2.005],[104.562,-2.001],[104.608,-1.998],[104.617,-1.98],[104.608,-1.963],[104.644,-1.925],[104.598,-1.877],[104.553,-1.854],[104.54,-1.861],[104.52,-1.927],[104.497,-1.932],[104.486,-1.914],[104.466,-1.911],[104.477,-1.899],[104.474,-1.862],[104.507,-1.806],[104.532,-1.798],[104.545,-1.778],[104.524,-1.709],[104.489,-1.661],[104.427,-1.631],[104.371,-1.642],[104.356,-1.671],[104.365,-1.71],[104.345,-1.738],[104.274,-1.748],[104.229,-1.741],[104.093,-1.786],[104.064,-1.773],[103.952,-1.774],[103.916,-1.745],[103.878,-1.743],[103.85,-1.755],[103.822,-1.796],[103.72,-1.801],[103.586,-1.858],[103.537,-1.904],[103.533,-2.014],[103.521,-2.03],[103.518,-2.102],[103.558,-2.14],[103.501,-2.175],[103.453,-2.178],[103.442,-2.213],[103.456,-2.263],[103.457,-2.297],[103.444,-2.314],[103.456,-2.336],[103.449,-2.358],[103.403,-2.334],[103.37,-2.287],[103.331,-2.269],[103.323,-2.242],[103.302,-2.237],[103.273,-2.148],[103.223,-2.137],[103.219,-2.172],[103.184,-2.19],[103.161,-2.234],[103.201,-2.27],[103.205,-2.321],[103.122,-2.357],[103.066,-2.341],[103.055,-2.318],[103.037,-2.316],[103.035,-2.343],[103.022,-2.35],[102.96,-2.329],[102.922,-2.333],[102.874,-2.311],[102.84,-2.372],[102.846,-2.387],[102.869,-2.391],[102.877,-2.418],[102.813,-2.483],[102.793,-2.539],[102.735,-2.582],[102.72,-2.559],[102.702,-2.59],[102.623,-2.624],[102.615,-2.662],[102.592,-2.683],[102.534,-2.678],[102.502,-2.702],[102.481,-2.695],[102.462,-2.703],[102.402,-2.687],[102.36,-2.65],[102.319,-2.654],[102.288,-2.626],[102.256,-2.623],[102.236,-2.64],[102.228,-2.692],[102.166,-2.708],[102.124,-2.727],[102.088,-2.767],[102.063,-2.767],[102.083,-2.806],[102.125,-2.833],[102.133,-2.876],[102.218,-2.929],[102.23,-2.992],[102.253,-3.033],[102.289,-3.04],[102.323,-3.068],[102.39,-3.044],[102.462,-3.073],[102.492,-3.132],[102.488,-3.205],[102.502,-3.217],[102.492,-3.245],[102.586,-3.329],[102.633,-3.35],[102.684,-3.32],[102.734,-3.316],[102.79,-3.285],[102.812,-3.336],[102.834,-3.331],[102.868,-3.346],[102.898,-3.333],[102.889,-3.342],[102.901,-3.38],[102.956,-3.364],[102.998,-3.37],[103.01,-3.396],[102.999,-3.411],[102.994,-3.519],[102.97,-3.533],[102.956,-3.568],[102.902,-3.615],[102.859,-3.549],[102.814,-3.526],[102.806,-3.617],[102.764,-3.643],[102.746,-3.67],[102.734,-3.742],[102.66,-3.768],[102.62,-3.801],[102.663,-3.816],[102.684,-3.855],[102.743,-3.889],[102.79,-3.95],[102.822,-3.97],[102.877,-3.985],[102.907,-3.966],[102.969,-4.017],[103.09,-4.007],[103.128,-4.026],[103.152,-4.1],[103.184,-4.143],[103.183,-4.239],[103.296,-4.258],[103.365,-4.315],[103.444,-4.328],[103.46,-4.32],[103.473,-4.352],[103.513,-4.376],[103.564,-4.354],[103.6,-4.358],[103.625,-4.425],[103.572,-4.501],[103.636,-4.555],[103.598,-4.591],[103.641,-4.595],[103.686,-4.634],[103.705,-4.701],[103.682,-4.728],[103.702,-4.723],[103.734,-4.742],[103.763,-4.741],[103.781,-4.772],[103.779,-4.795]]]]}},{"type":"Feature","properties":{"code":"17","name":"Bengkulu"},"geometry":{"type":"MultiPolygon","coordinates":[[[[102.088,-5.357],[102.162,-5.395],[102.168,-5.41],[102.204,-5.414],[102.266,-5.512],[102.275,-5.514],[102.27,-5.49],[102.282,-5.478],[102.303,-5.488],[102.312,-5.476],[102.323,-5.495],[102.356,-5.506],[102.375,-5.489],[102.339,-5.455],[102.367,-5.457],[102.39,-5.406],[102.386,-5.39],[102.321,-5.36],[102.276,-5.355],[102.237,-5.319],[102.146,-5.282],[102.135,-5.313],[102.094,-5.323],[102.088,-5.357]]],[[[101.025,-2.484],[101.144,-2.629],[101.323,-2.738],[101.403,-2.925],[101.48,-3.014],[101.488,-3.052],[101.525,-3.099],[101.521,-3.115],[101.616,-3.24],[101.793,-3.369],[101.898,-3.428],[101.926,-3.459],[101.924,-3.476],[102.099,-3.566],[102.231,-3.677],[102.245,-3.703],[102.233,-3.715],[102.262,-3.761],[102.248,-3.793],[102.302,-3.869],[102.302,-3.886],[102.282,-3.901],[102.307,-3.891],[102.292,-3.924],[102.275,-3.916],[102.276,-3.898],[102.266,-3.914],[102.292,-3.975],[102.796,-4.354],[102.893,-4.456],[102.901,-4.489],[103.015,-4.525],[103.151,-4.6],[103.284,-4.71],[103.295,-4.741],[103.319,-4.762],[103.31,-4.782],[103.329,-4.809],[103.344,-4.812],[103.362,-4.796],[103.382,-4.802],[103.404,-4.82],[103.413,-4.865],[103.482,-4.87],[103.525,-4.888],[103.534,-4.917],[103.596,-4.924],[103.605,-4.891],[103.625,-4.891],[103.639,-4.869],[103.708,-4.831],[103.72,-4.801],[103.772,-4.803],[103.781,-4.772],[103.773,-4.749],[103.702,-4.723],[103.682,-4.728],[103.705,-4.701],[103.686,-4.634],[103.641,-4.595],[103.598,-4.591],[103.636,-4.555],[103.572,-4.501],[103.625,-4.425],[103.6,-4.358],[103.564,-4.354],[103.513,-4.376],[103.473,-4.352],[103.46,-4.32],[103.444,-4.328],[103.365,-4.315],[103.296,-4.258],[103.183,-4.239],[103.184,-4.143],[103.152,-4.1],[103.128,-4.026],[103.09,-4.007],[102.969,-4.017],[102.907,-3.966],[102.877,-3.985],[102.822,-3.97],[102.79,-3.95],[102.743,-3.889],[102.684,-3.855],[102.663,-3.816],[102.62,-3.801],[102.66,-3.768],[102.734,-3.742],[102.746,-3.67],[102.764,-3.643],[102.806,-3.617],[102.814,-3.526],[102.859,-3.549],[102.902,-3.615],[102.956,-3.568],[102.97,-3.533],[102.994,-3.519],[102.999,-3.411],[103.01,-3.396],[102.998,-3.37],[102.956,-3.364],[102.901,-3.38],[102.889,-3.342],[102.898,-3.333],[102.868,-3.346],[102.834,-3.331],[102.812,-3.336],[102.79,-3.285],[102.734,-3.316],[102.684,-3.32],[102.633,-3.35],[102.586,-3.329],[102.492,-3.245],[102.502,-3.217],[102.488,-3.205],[102.492,-3.132],[102.462,-3.073],[102.39,-3.044],[102.323,-3.068],[102.289,-3.04],[102.253,-3.033],[102.23,-2.992],[102.218,-2.929],[102.133,-2.876],[102.125,-2.833],[102.083,-2.806],[102.06,-2.763],[102.026,-2.755],[101.99,-2.723],[101.931,-2.731],[101.924,-2.741],[101.861,-2.724],[101.733,-2.608],[101.67,-2.529],[101.629,-2.546],[101.604,-2.537],[101.569,-2.545],[101.563,-2.567],[101.548,-2.569],[101.557,-2.449],[101.293,-2.277],[101.245,-2.345],[101.155,-2.39],[101.025,-2.484]]]]}},{"type":"Feature","properties":{"code":"18","name":"Lampung"},"geometry":{"type":"MultiPolygon","coordinates":[[[[104.781,-5.76],[104.78,-5.777],[104.814,-5.825],[104.855,-5.847],[104.853,-5.802],[104.781,-5.76]]],[[[103.596,-4.924],[103.628,-4.929],[103.658,-4.959],[103.661,-4.993],[103.694,-4.961],[103.719,-4.969],[103.748,-4.997],[103.74,-5.024],[103.748,-5.042],[103.784,-5.032],[103.839,-5.067],[103.867,-5.11],[103.914,-5.132],[103.935,-5.174],[103.9,-5.218],[103.904,-5.232],[103.988,-5.26],[104.008,-5.286],[103.992,-5.308],[103.998,-5.324],[104.027,-5.334],[104.027,-5.361],[104.056,-5.377],[104.069,-5.409],[104.107,-5.43],[104.119,-5.457],[104.187,-5.487],[104.212,-5.508],[104.214,-5.526],[104.252,-5.539],[104.311,-5.589],[104.319,-5.619],[104.309,-5.633],[104.3,-5.628],[104.301,-5.642],[104.416,-5.708],[104.45,-5.763],[104.564,-5.865],[104.574,-5.907],[104.553,-5.918],[104.581,-5.943],[104.734,-5.933],[104.697,-5.879],[104.712,-5.834],[104.647,-5.746],[104.644,-5.733],[104.656,-5.726],[104.643,-5.691],[104.531,-5.545],[104.561,-5.512],[104.605,-5.496],[104.708,-5.522],[104.727,-5.56],[104.748,-5.566],[104.77,-5.6],[104.829,-5.624],[104.875,-5.66],[104.899,-5.665],[104.901,-5.656],[104.937,-5.703],[104.958,-5.71],[104.966,-5.694],[104.968,-5.714],[104.988,-5.712],[104.987,-5.722],[105.011,-5.733],[105.028,-5.727],[105.026,-5.751],[105.058,-5.75],[105.064,-5.766],[105.086,-5.757],[105.091,-5.776],[105.103,-5.763],[105.109,-5.775],[105.087,-5.795],[105.119,-5.776],[105.127,-5.798],[105.163,-5.807],[105.194,-5.803],[105.211,-5.784],[105.221,-5.791],[105.223,-5.78],[105.207,-5.767],[105.176,-5.779],[105.154,-5.752],[105.181,-5.721],[105.201,-5.718],[105.209,-5.729],[105.219,-5.721],[105.172,-5.667],[105.211,-5.649],[105.193,-5.649],[105.167,-5.606],[105.194,-5.584],[105.243,-5.589],[105.262,-5.544],[105.249,-5.546],[105.246,-5.522],[105.249,-5.512],[105.256,-5.526],[105.266,-5.521],[105.254,-5.464],[105.29,-5.445],[105.32,-5.469],[105.325,-5.502],[105.364,-5.54],[105.382,-5.592],[105.409,-5.622],[105.47,-5.647],[105.47,-5.658],[105.526,-5.693],[105.536,-5.673],[105.558,-5.667],[105.557,-5.703],[105.589,-5.733],[105.583,-5.803],[105.605,-5.832],[105.706,-5.85],[105.718,-5.908],[105.756,-5.869],[105.799,-5.795],[105.792,-5.714],[105.828,-5.589],[105.814,-5.551],[105.82,-5.329],[105.832,-5.292],[105.855,-5.282],[105.864,-5.256],[105.86,-5.036],[105.875,-4.96],[105.902,-4.94],[105.871,-4.873],[105.861,-4.785],[105.884,-4.7],[105.875,-4.679],[105.898,-4.682],[105.916,-4.647],[105.885,-4.598],[105.906,-4.551],[105.899,-4.495],[105.913,-4.438],[105.888,-4.439],[105.855,-4.411],[105.859,-4.379],[105.825,-4.343],[105.818,-4.136],[105.773,-4.111],[105.767,-4.134],[105.745,-4.145],[105.726,-4.131],[105.702,-4.137],[105.71,-4.104],[105.686,-4.099],[105.681,-4.076],[105.663,-4.091],[105.651,-4.086],[105.646,-4.066],[105.661,-4.046],[105.626,-4.04],[105.608,-4.057],[105.631,-4.005],[105.612,-3.967],[105.59,-3.954],[105.61,-3.943],[105.606,-3.933],[105.597,-3.923],[105.584,-3.937],[105.563,-3.929],[105.573,-3.903],[105.547,-3.881],[105.526,-3.895],[105.513,-3.873],[105.524,-3.84],[105.494,-3.842],[105.481,-3.822],[105.433,-3.827],[105.432,-3.784],[105.388,-3.779],[105.357,-3.797],[105.334,-3.724],[105.318,-3.734],[105.304,-3.794],[105.284,-3.798],[105.282,-3.828],[105.293,-3.841],[105.277,-3.877],[105.244,-3.907],[105.23,-3.89],[105.204,-3.892],[105.176,-3.91],[105.164,-3.939],[105.139,-3.936],[105.135,-3.99],[105.106,-4.015],[105.12,-4.047],[105.093,-4.048],[105.063,-4.097],[105.063,-4.121],[105.012,-4.173],[104.968,-4.172],[104.873,-4.219],[104.873,-4.234],[104.814,-4.244],[104.79,-4.262],[104.756,-4.245],[104.643,-4.246],[104.622,-4.217],[104.481,-4.291],[104.476,-4.308],[104.445,-4.301],[104.37,-4.353],[104.323,-4.456],[104.342,-4.601],[104.3,-4.642],[104.289,-4.68],[104.32,-4.701],[104.321,-4.752],[104.368,-4.798],[104.359,-4.839],[104.334,-4.871],[104.303,-4.884],[104.277,-4.865],[104.233,-4.879],[104.219,-4.86],[104.194,-4.861],[104.153,-4.915],[104.112,-4.92],[104.06,-4.886],[104.048,-4.9],[103.96,-4.913],[103.927,-4.876],[103.916,-4.892],[103.85,-4.918],[103.844,-4.909],[103.866,-4.877],[103.866,-4.846],[103.824,-4.821],[103.826,-4.798],[103.815,-4.788],[103.768,-4.805],[103.72,-4.801],[103.708,-4.831],[103.639,-4.869],[103.625,-4.891],[103.605,-4.891],[103.596,-4.924]]]]}},{"type":"Feature","properties":{"code":"19","name":"Bangka-Belitung Islands"},"geometry":{"type":"MultiPolygon","coordinates":[[[[108.886,-1.555],[108.857,-1.573],[108.834,-1.553],[108.79,-1.582],[108.807,-1.581],[108.799,-1.593],[108.846,-1.584],[108.827,-1.59],[108.841,-1.629],[108.819,-1.649],[108.858,-1.678],[108.958,-1.641],[108.983,-1.602],[108.938,-1.55],[108.917,-1.552],[108.897,-1.534],[108.886,-1.555]]],[[[107.339,-2.882],[107.411,-2.947],[107.425,-2.931],[107.412,-2.919],[107.429,-2.93],[107.47,-2.908],[107.464,-2.897],[107.477,-2.891],[107.487,-2.85],[107.465,-2.851],[107.48,-2.845],[107.468,-2.823],[107.423,-2.828],[107.38,-2.85],[107.367,-2.866],[107.374,-2.885],[107.339,-2.882]]],[[[106.875,-3.031],[106.896,-3.03],[106.88,-3.009],[106.91,-2.947],[106.893,-2.929],[106.847,-2.919],[106.803,-2.886],[106.782,-2.911],[106.731,-2.927],[106.709,-2.967],[106.823,-3.033],[106.875,-3.031]]],[[[107.598,-2.812],[107.599,-2.857],[107.529,-2.921],[107.531,-2.937],[107.565,-2.931],[107.587,-2.913],[107.615,-2.914],[107.591,-2.974],[107.562,-3.003],[107.595,-3.104],[107.629,-3.142],[107.585,-3.196],[107.608,-3.243],[107.641,-3.239],[107.676,-3.207],[107.721,-3.19],[107.767,-3.191],[107.829,-3.168],[107.836,-3.129],[107.85,-3.121],[107.81,-3.086],[107.86,-3.059],[107.899,-3.096],[107.885,-3.116],[107.923,-3.124],[107.933,-3.151],[107.971,-3.18],[107.966,-3.243],[107.985,-3.272],[108.023,-3.243],[108.08,-3.247],[108.087,-3.209],[108.069,-3.187],[108.082,-3.169],[108.145,-3.174],[108.185,-3.146],[108.207,-3.147],[108.182,-3.119],[108.217,-3.053],[108.21,-3.008],[108.248,-2.952],[108.254,-2.913],[108.294,-2.879],[108.298,-2.848],[108.267,-2.747],[108.193,-2.691],[108.197,-2.683],[108.153,-2.669],[108.156,-2.654],[108.128,-2.629],[108.113,-2.632],[108.089,-2.6],[108.059,-2.608],[108.042,-2.598],[108.043,-2.635],[108.025,-2.643],[108.002,-2.618],[108.011,-2.585],[107.99,-2.572],[107.959,-2.578],[107.923,-2.56],[107.903,-2.575],[107.833,-2.553],[107.833,-2.532],[107.816,-2.526],[107.761,-2.557],[107.719,-2.547],[107.688,-2.565],[107.669,-2.554],[107.629,-2.595],[107.647,-2.626],[107.613,-2.703],[107.628,-2.714],[107.63,-2.747],[107.605,-2.765],[107.615,-2.769],[107.601,-2.788],[107.581,-2.796],[107.598,-2.812]]],[[[107.021,-2.874],[107.05,-2.907],[107.087,-2.911],[107.093,-2.861],[107.068,-2.836],[107.058,-2.85],[107.058,-2.82],[107.021,-2.874]]],[[[105.951,-2.813],[106.096,-2.837],[106.142,-2.874],[106.182,-2.869],[106.233,-2.899],[106.276,-2.9],[106.324,-2.935],[106.337,-2.966],[106.428,-2.972],[106.442,-3.011],[106.493,-3.053],[106.493,-3.091],[106.514,-3.114],[106.536,-3.1],[106.554,-3.107],[106.556,-3.089],[106.586,-3.076],[106.609,-3.087],[106.643,-3.081],[106.66,-3.1],[106.687,-3.088],[106.706,-3.096],[106.72,-3.082],[106.739,-3.085],[106.732,-3.073],[106.743,-3.057],[106.729,-3.031],[106.744,-3.006],[106.695,-3.001],[106.677,-2.974],[106.609,-2.961],[106.595,-2.945],[106.601,-2.866],[106.663,-2.717],[106.711,-2.641],[106.764,-2.597],[106.773,-2.605],[106.791,-2.585],[106.821,-2.581],[106.807,-2.594],[106.849,-2.571],[106.572,-2.521],[106.482,-2.496],[106.447,-2.471],[106.38,-2.473],[106.301,-2.42],[106.237,-2.328],[106.229,-2.259],[106.156,-2.09],[106.164,-2.069],[106.151,-1.993],[106.162,-1.929],[106.187,-1.897],[106.171,-1.872],[106.135,-1.855],[106.119,-1.822],[106.13,-1.804],[106.105,-1.792],[106.095,-1.755],[106.079,-1.751],[106.031,-1.685],[106.022,-1.639],[106.033,-1.615],[106.055,-1.618],[106.049,-1.599],[105.981,-1.549],[105.955,-1.557],[105.925,-1.547],[105.912,-1.533],[105.922,-1.52],[105.916,-1.501],[105.889,-1.5],[105.881,-1.518],[105.806,-1.531],[105.566,-1.529],[105.564,-1.544],[105.535,-1.562],[105.461,-1.561],[105.418,-1.606],[105.392,-1.606],[105.389,-1.636],[105.347,-1.647],[105.345,-1.668],[105.361,-1.671],[105.345,-1.691],[105.321,-1.697],[105.379,-1.722],[105.4,-1.769],[105.388,-1.799],[105.36,-1.834],[105.268,-1.893],[105.162,-1.93],[105.127,-1.958],[105.127,-1.996],[105.11,-2.021],[105.126,-2.073],[105.132,-2.084],[105.155,-2.07],[105.228,-2.065],[105.251,-2.077],[105.305,-2.152],[105.325,-2.13],[105.364,-2.12],[105.384,-2.129],[105.418,-2.116],[105.447,-2.131],[105.505,-2.085],[105.56,-2.083],[105.592,-2.121],[105.727,-2.126],[105.788,-2.169],[105.788,-2.247],[105.827,-2.314],[105.803,-2.365],[105.835,-2.411],[105.88,-2.422],[105.936,-2.476],[105.938,-2.528],[105.892,-2.587],[105.899,-2.604],[105.887,-2.643],[105.901,-2.659],[105.92,-2.743],[105.953,-2.779],[105.951,-2.813]]]]}},{"type":"Feature","properties":{"code":"21","name":"Riau Islands"},"geometry":{"type":"MultiPolygon","coordinates":[[[[104.447,-0.344],[104.427,-0.361],[104.424,-0.393],[104.403,-0.408],[104.364,-0.408],[104.347,-0.389],[104.345,-0.445],[104.311,-0.417],[104.338,-0.388],[104.325,-0.34],[104.311,-0.39],[104.276,-0.399],[104.259,-0.477],[104.244,-0.486],[104.309,-0.54],[104.322,-0.511],[104.331,-0.513],[104.318,-0.542],[104.344,-0.619],[104.342,-0.656],[104.359,-0.683],[104.388,-0.665],[104.397,-0.603],[104.427,-0.588],[104.43,-0.574],[104.456,-0.621],[104.505,-0.644],[104.508,-0.6],[104.534,-0.541],[104.565,-0.502],[104.591,-0.494],[104.601,-0.468],[104.573,-0.445],[104.531,-0.365],[104.5,-0.361],[104.483,-0.337],[104.447,-0.344]]],[[[104.427,-0.291],[104.408,-0.282],[104.386,-0.298],[104.439,-0.33],[104.461,-0.327],[104.457,-0.308],[104.479,-0.319],[104.491,-0.306],[104.477,-0.279],[104.427,-0.291]]],[[[104.495,0],[104.499,-0.051],[104.511,-0.062],[104.506,-0.13],[104.471,-0.138],[104.475,-0.159],[104.454,-0.16],[104.448,-0.183],[104.428,-0.185],[104.43,-0.237],[104.499,-0.244],[104.507,-0.27],[104.522,-0.275],[104.565,-0.241],[104.599,-0.25],[104.651,-0.217],[104.703,-0.202],[104.753,-0.234],[104.749,-0.252],[104.79,-0.263],[104.794,-0.281],[104.848,-0.322],[104.862,-0.315],[104.919,-0.336],[104.929,-0.325],[104.906,-0.316],[104.9,-0.294],[104.917,-0.278],[104.986,-0.308],[105.002,-0.304],[104.999,-0.28],[104.952,-0.275],[104.89,-0.224],[104.829,-0.135],[104.813,-0.154],[104.825,-0.194],[104.816,-0.204],[104.75,-0.188],[104.735,-0.143],[104.687,-0.088],[104.664,-0.085],[104.668,-0.115],[104.633,-0.098],[104.628,-0.076],[104.652,-0.086],[104.668,-0.075],[104.61,-0.013],[104.552,0.029],[104.558,0],[104.512,-0.009],[104.507,0.007],[104.495,0]]],[[[104.38,0.127],[104.45,0.042],[104.495,0.015],[104.463,0.057],[104.486,0.044],[104.494,0.073],[104.476,0.079],[104.406,0.162],[104.397,0.145],[104.424,0.117],[104.413,0.116],[104.43,0.091],[104.38,0.127]]],[[[104.331,0.376],[104.36,0.341],[104.338,0.341],[104.345,0.325],[104.374,0.305],[104.378,0.316],[104.382,0.297],[104.389,0.308],[104.39,0.289],[104.421,0.299],[104.399,0.315],[104.434,0.308],[104.425,0.327],[104.331,0.376]]],[[[104.562,0.119],[104.604,0.082],[104.625,0.091],[104.633,0.062],[104.702,0.018],[104.702,0.049],[104.664,0.072],[104.526,0.238],[104.513,0.248],[104.53,0.21],[104.493,0.243],[104.478,0.242],[104.529,0.189],[104.506,0.191],[104.537,0.15],[104.552,0.164],[104.565,0.14],[104.549,0.151],[104.546,0.141],[104.562,0.119]]],[[[104.213,0.703],[104.247,0.668],[104.264,0.621],[104.289,0.611],[104.279,0.672],[104.26,0.689],[104.267,0.668],[104.214,0.719],[104.213,0.703]]],[[[104.236,0.703],[104.259,0.693],[104.254,0.721],[104.259,0.704],[104.311,0.708],[104.264,0.743],[104.258,0.77],[104.277,0.797],[104.256,0.802],[104.213,0.783],[104.202,0.797],[104.19,0.775],[104.171,0.782],[104.197,0.721],[104.218,0.727],[104.236,0.703]]],[[[109.028,2.483],[109.05,2.49],[109.051,2.503],[109.082,2.489],[109.113,2.504],[109.12,2.531],[109.067,2.522],[109.032,2.534],[109.007,2.56],[108.977,2.556],[108.979,2.521],[109.009,2.531],[109.034,2.515],[109.007,2.5],[109.008,2.489],[109.028,2.483]]],[[[103.359,1.131],[103.351,1.135],[103.311,1.087],[103.313,1.069],[103.324,1.067],[103.31,1.054],[103.316,1.035],[103.352,1.005],[103.374,1.011],[103.394,0.993],[103.443,0.991],[103.423,1.047],[103.376,1.056],[103.398,1.057],[103.38,1.097],[103.39,1.12],[103.374,1.137],[103.371,1.123],[103.359,1.131]]],[[[103.909,1.055],[103.919,1.025],[103.943,1.009],[103.966,1.006],[103.99,1.026],[104.009,0.986],[104.041,0.983],[104.046,0.998],[104.028,1.007],[104.032,1.015],[104.03,1.006],[104.066,0.985],[104.072,0.999],[104.101,0.983],[104.083,1.029],[104.098,1.027],[104.106,1.044],[104.11,1.033],[104.137,1.04],[104.144,1.163],[104.104,1.197],[104.083,1.195],[104.069,1.167],[104.095,1.147],[104.079,1.145],[104.085,1.128],[104.075,1.12],[104.048,1.136],[104.053,1.167],[104.024,1.175],[104.025,1.192],[104.006,1.187],[104.001,1.147],[103.985,1.144],[104,1.12],[103.978,1.137],[103.966,1.125],[103.961,1.144],[103.944,1.145],[103.948,1.132],[103.92,1.143],[103.937,1.116],[103.937,1.083],[103.92,1.074],[103.914,1.099],[103.89,1.097],[103.909,1.055]]],[[[108.847,2.851],[108.863,2.879],[108.885,2.88],[108.887,2.914],[108.877,2.92],[108.886,2.937],[108.87,2.937],[108.876,2.949],[108.885,2.945],[108.889,3.003],[108.864,3.012],[108.838,2.996],[108.827,2.935],[108.776,2.892],[108.788,2.863],[108.818,2.843],[108.847,2.851]]],[[[105.851,2.987],[105.8,2.999],[105.788,2.974],[105.741,2.972],[105.723,2.988],[105.737,3.01],[105.739,3.05],[105.718,3.033],[105.705,3.061],[105.69,3.061],[105.704,3.034],[105.692,3.006],[105.677,3.01],[105.712,2.983],[105.691,2.977],[105.693,2.968],[105.715,2.962],[105.707,2.934],[105.695,2.933],[105.706,2.924],[105.695,2.851],[105.727,2.817],[105.741,2.831],[105.745,2.819],[105.76,2.825],[105.77,2.84],[105.722,2.873],[105.769,2.873],[105.769,2.895],[105.785,2.907],[105.8,2.889],[105.823,2.887],[105.795,2.909],[105.829,2.91],[105.811,2.945],[105.825,2.957],[105.82,2.97],[105.851,2.957],[105.841,2.98],[105.851,2.987]]],[[[106.226,3.313],[106.238,3.345],[106.215,3.358],[106.223,3.394],[106.203,3.38],[106.201,3.345],[106.172,3.332],[106.189,3.301],[106.201,3.327],[106.213,3.298],[106.226,3.313]]],[[[107.986,4.71],[108.008,4.774],[107.993,4.773],[107.96,4.71],[107.927,4.693],[107.929,4.68],[107.965,4.668],[107.986,4.71]]],[[[108.387,3.793],[108.409,3.886],[108.377,3.856],[108.378,3.878],[108.354,3.901],[108.39,3.897],[108.395,3.915],[108.382,3.931],[108.403,3.964],[108.347,3.999],[108.344,4.017],[108.294,4.056],[108.299,4.087],[108.265,4.092],[108.234,4.129],[108.226,4.19],[108.242,4.216],[108.226,4.233],[108.208,4.226],[108.196,4.196],[108.145,4.136],[108.09,4.106],[108.064,4.065],[108.023,4.056],[108.015,4.028],[107.963,4.005],[107.994,3.983],[107.99,3.943],[108.029,3.906],[108.019,3.88],[108.061,3.835],[108.223,3.789],[108.233,3.817],[108.241,3.774],[108.276,3.715],[108.201,3.772],[108.155,3.765],[108.149,3.744],[108.141,3.752],[108.118,3.745],[108.119,3.726],[108.093,3.694],[108.091,3.678],[108.119,3.665],[108.117,3.677],[108.127,3.674],[108.157,3.629],[108.224,3.663],[108.298,3.659],[108.313,3.737],[108.337,3.765],[108.351,3.764],[108.387,3.793]]],[[[106.275,3.178],[106.279,3.194],[106.252,3.221],[106.228,3.23],[106.213,3.215],[106.198,3.23],[106.211,3.121],[106.224,3.131],[106.223,3.109],[106.237,3.096],[106.248,3.124],[106.256,3.12],[106.26,3.094],[106.275,3.101],[106.279,3.077],[106.289,3.104],[106.283,3.12],[106.275,3.106],[106.276,3.125],[106.291,3.161],[106.288,3.18],[106.282,3.171],[106.275,3.178]]],[[[106.284,3.227],[106.259,3.287],[106.275,3.297],[106.276,3.265],[106.289,3.252],[106.291,3.348],[106.307,3.367],[106.282,3.384],[106.27,3.379],[106.265,3.336],[106.26,3.36],[106.243,3.342],[106.235,3.302],[106.248,3.291],[106.227,3.26],[106.266,3.228],[106.273,3.236],[106.284,3.227]]],[[[103.359,0.845],[103.345,0.803],[103.351,0.742],[103.377,0.699],[103.405,0.681],[103.4,0.648],[103.459,0.638],[103.505,0.718],[103.511,0.761],[103.471,0.817],[103.414,0.839],[103.397,0.888],[103.37,0.892],[103.359,0.845]]],[[[103.835,0.774],[103.834,0.812],[103.783,0.872],[103.749,0.886],[103.725,0.882],[103.72,0.853],[103.758,0.804],[103.82,0.772],[103.821,0.752],[103.835,0.774]]],[[[103.522,0.81],[103.491,0.848],[103.453,0.857],[103.411,0.885],[103.42,0.844],[103.476,0.82],[103.528,0.766],[103.533,0.799],[103.522,0.81]]],[[[103.905,0.83],[103.904,0.848],[103.864,0.88],[103.812,0.898],[103.83,0.848],[103.883,0.797],[103.905,0.83]]],[[[103.487,0.856],[103.475,0.915],[103.437,0.926],[103.407,0.91],[103.435,0.87],[103.487,0.856]]],[[[104.126,0.945],[104.12,0.962],[104.094,0.95],[104.078,0.96],[104.095,0.927],[104.092,0.871],[104.116,0.878],[104.121,0.862],[104.145,0.858],[104.169,0.787],[104.181,0.783],[104.203,0.806],[104.245,0.821],[104.263,0.863],[104.235,0.86],[104.234,0.876],[104.209,0.882],[104.181,0.868],[104.185,0.887],[104.167,0.867],[104.171,0.899],[104.153,0.895],[104.156,0.924],[104.126,0.945]]],[[[103.919,1.009],[103.868,1.037],[103.849,1.027],[103.857,1.013],[103.834,1.018],[103.832,0.99],[103.852,0.964],[103.944,0.909],[103.968,0.966],[103.919,1.009]]],[[[104.414,0.975],[104.409,0.964],[104.421,0.952],[104.451,0.937],[104.474,0.944],[104.482,0.931],[104.476,0.919],[104.466,0.932],[104.438,0.926],[104.439,0.906],[104.494,0.875],[104.475,0.85],[104.516,0.846],[104.52,0.826],[104.555,0.814],[104.593,0.809],[104.61,0.827],[104.62,0.9],[104.66,0.914],[104.66,0.943],[104.641,0.947],[104.636,0.99],[104.658,1.045],[104.633,1.111],[104.598,1.126],[104.578,1.155],[104.584,1.229],[104.552,1.224],[104.537,1.182],[104.499,1.168],[104.407,1.202],[104.379,1.197],[104.371,1.179],[104.339,1.19],[104.31,1.178],[104.331,1.165],[104.318,1.16],[104.333,1.146],[104.328,1.138],[104.239,1.124],[104.215,1.066],[104.237,1.038],[104.226,1.02],[104.256,1.002],[104.332,0.995],[104.339,1.025],[104.379,1.011],[104.405,1.034],[104.403,1.055],[104.417,1.055],[104.417,1.04],[104.453,1.054],[104.477,1.027],[104.496,1.035],[104.484,1.017],[104.464,1.022],[104.441,1.001],[104.479,0.975],[104.491,0.981],[104.483,0.973],[104.467,0.982],[104.414,0.975]]]]}},{"type":"Feature","properties":{"code":"61","name":"West Kalimantan"},"geometry":{"type":"MultiPolygon","coordinates":[[[[110.112,-2.673],[110.081,-2.693],[110.067,-2.73],[110.045,-2.748],[110.084,-2.761],[110.128,-2.742],[110.116,-2.718],[110.128,-2.694],[110.112,-2.673]]],[[[109.687,-1.217],[109.691,-1.193],[109.78,-1.147],[109.767,-1.111],[109.762,-1.004],[109.718,-0.989],[109.675,-1.02],[109.644,-1.01],[109.637,-0.986],[109.597,-0.981],[109.545,-1.002],[109.488,-0.973],[109.475,-1.001],[109.459,-1.003],[109.427,-1.205],[109.411,-1.24],[109.383,-1.26],[109.434,-1.295],[109.501,-1.31],[109.591,-1.248],[109.687,-1.217]]],[[[113.84,0.668],[113.844,0.706],[113.875,0.713],[113.895,0.739],[113.889,0.787],[113.926,0.838],[113.875,0.893],[113.88,0.928],[113.908,0.954],[113.918,0.987],[113.915,1.008],[113.892,1.023],[113.894,1.052],[113.942,1.063],[113.959,1.114],[113.986,1.144],[114.03,1.147],[114.046,1.132],[114.08,1.162],[114.11,1.15],[114.14,1.199],[114.126,1.224],[114.161,1.266],[114.142,1.293],[114.153,1.313],[114.148,1.379],[114.207,1.41],[114.143,1.465],[113.954,1.442],[113.937,1.416],[113.909,1.413],[113.815,1.364],[113.831,1.347],[113.81,1.299],[113.703,1.263],[113.665,1.215],[113.63,1.216],[113.617,1.227],[113.625,1.25],[113.596,1.26],[113.582,1.306],[113.544,1.32],[113.498,1.317],[113.451,1.286],[113.419,1.285],[113.395,1.319],[113.366,1.326],[113.355,1.359],[113.326,1.377],[113.306,1.373],[113.267,1.392],[113.251,1.385],[113.233,1.398],[113.181,1.379],[113.141,1.393],[113.106,1.445],[113.019,1.404],[112.975,1.409],[112.982,1.45],[113.04,1.474],[113.032,1.493],[113.071,1.529],[113.059,1.558],[113.006,1.569],[113.003,1.581],[112.975,1.563],[112.885,1.588],[112.842,1.537],[112.801,1.541],[112.776,1.562],[112.677,1.552],[112.66,1.569],[112.5,1.58],[112.447,1.55],[112.43,1.523],[112.395,1.523],[112.352,1.5],[112.319,1.505],[112.276,1.466],[112.208,1.45],[112.195,1.411],[112.226,1.399],[112.226,1.384],[112.199,1.322],[112.177,1.311],[112.174,1.26],[112.158,1.25],[112.168,1.219],[112.142,1.186],[112.156,1.17],[112.154,1.142],[111.935,1.118],[111.928,1.088],[111.88,1.066],[111.866,1.009],[111.826,0.985],[111.776,0.999],[111.762,1.021],[111.748,1.009],[111.716,1.008],[111.714,1.026],[111.667,1.043],[111.595,1.008],[111.577,0.974],[111.56,0.986],[111.548,0.978],[111.552,0.957],[111.54,0.949],[111.523,0.957],[111.514,1.007],[111.489,1.034],[111.464,1.036],[111.443,1.016],[111.405,1.009],[111.272,1.068],[111.254,1.064],[111.225,1.093],[111.198,1.065],[111.142,1.052],[111.079,1.051],[110.997,1.027],[110.905,1.028],[110.888,0.981],[110.862,0.966],[110.86,0.95],[110.809,0.95],[110.805,0.9],[110.769,0.932],[110.755,0.9],[110.723,0.908],[110.697,0.883],[110.668,0.876],[110.649,0.893],[110.652,0.906],[110.633,0.909],[110.628,0.872],[110.576,0.854],[110.491,0.876],[110.446,0.908],[110.433,0.926],[110.439,0.944],[110.406,0.953],[110.395,0.997],[110.359,0.983],[110.339,1.013],[110.324,0.993],[110.308,1.004],[110.277,0.996],[110.286,1.044],[110.263,1.056],[110.268,1.066],[110.248,1.086],[110.241,1.117],[110.209,1.118],[110.213,1.15],[110.192,1.183],[110.155,1.199],[110.097,1.198],[110.086,1.217],[110.064,1.209],[110.065,1.265],[109.979,1.299],[109.962,1.403],[109.93,1.425],[109.894,1.415],[109.836,1.422],[109.829,1.456],[109.839,1.486],[109.807,1.466],[109.799,1.499],[109.698,1.588],[109.689,1.61],[109.662,1.619],[109.661,1.693],[109.686,1.782],[109.636,1.805],[109.585,1.792],[109.583,1.835],[109.553,1.853],[109.558,1.871],[109.538,1.925],[109.564,1.937],[109.565,1.951],[109.552,1.956],[109.56,1.971],[109.6,1.974],[109.627,1.991],[109.645,2.081],[109.587,1.991],[109.471,1.981],[109.431,1.95],[109.338,1.943],[109.323,1.927],[109.344,1.875],[109.338,1.832],[109.287,1.776],[109.303,1.773],[109.26,1.673],[109.221,1.633],[109.104,1.567],[109.049,1.505],[109.037,1.445],[109.044,1.347],[108.987,1.275],[108.96,1.205],[108.968,1.197],[109.002,1.215],[109.06,1.206],[109.115,1.242],[109.141,1.24],[109.066,1.199],[108.989,1.201],[108.965,1.17],[108.925,1.176],[108.905,1.163],[108.924,1.118],[108.935,1.12],[108.932,1.099],[108.95,1.067],[108.962,1.065],[108.98,0.989],[108.968,0.935],[108.939,0.885],[108.911,0.863],[108.893,0.871],[108.841,0.815],[108.852,0.786],[108.865,0.789],[108.881,0.764],[108.873,0.708],[108.897,0.694],[108.926,0.634],[108.927,0.563],[108.908,0.48],[108.941,0.445],[108.947,0.387],[108.915,0.336],[108.928,0.318],[109.015,0.297],[109.092,0.245],[109.127,0.192],[109.137,0.13],[109.189,0.066],[109.169,0.028],[109.162,-0.059],[109.094,-0.135],[109.077,-0.203],[109.055,-0.222],[109.056,-0.276],[109.103,-0.345],[109.115,-0.517],[109.147,-0.571],[109.189,-0.569],[109.186,-0.553],[109.202,-0.552],[109.252,-0.604],[109.376,-0.584],[109.385,-0.602],[109.351,-0.634],[109.36,-0.653],[109.391,-0.658],[109.457,-0.707],[109.459,-0.719],[109.47,-0.716],[109.445,-0.709],[109.459,-0.73],[109.539,-0.732],[109.469,-0.754],[109.398,-0.708],[109.319,-0.705],[109.248,-0.662],[109.239,-0.795],[109.257,-0.849],[109.307,-0.906],[109.397,-0.933],[109.419,-0.916],[109.403,-0.896],[109.421,-0.913],[109.432,-0.896],[109.422,-0.873],[109.406,-0.87],[109.448,-0.849],[109.439,-0.857],[109.455,-0.866],[109.553,-0.885],[109.59,-0.903],[109.613,-0.972],[109.623,-0.978],[109.628,-0.967],[109.651,-0.999],[109.669,-0.997],[109.682,-1.013],[109.698,-0.988],[109.734,-0.967],[109.732,-0.988],[109.765,-0.996],[109.769,-1.035],[109.804,-1.049],[109.819,-1.091],[109.867,-1.094],[109.945,-1.126],[109.909,-1.21],[109.934,-1.218],[109.933,-1.233],[109.948,-1.239],[109.939,-1.252],[109.962,-1.277],[109.993,-1.274],[110.017,-1.287],[110.062,-1.347],[110.074,-1.405],[110.036,-1.525],[110.032,-1.667],[109.972,-1.752],[109.954,-1.763],[109.931,-1.757],[109.941,-1.777],[109.91,-1.77],[109.915,-1.812],[109.901,-1.828],[109.922,-1.856],[110.065,-1.929],[110.092,-1.963],[110.118,-2.032],[110.11,-2.15],[110.085,-2.181],[110.093,-2.223],[110.063,-2.245],[110.094,-2.244],[110.138,-2.303],[110.149,-2.428],[110.181,-2.454],[110.185,-2.498],[110.2,-2.519],[110.185,-2.589],[110.149,-2.621],[110.159,-2.635],[110.211,-2.645],[110.233,-2.693],[110.22,-2.738],[110.259,-2.762],[110.261,-2.824],[110.224,-2.886],[110.261,-2.963],[110.306,-2.996],[110.375,-2.926],[110.469,-2.871],[110.572,-2.838],[110.616,-2.876],[110.639,-2.99],[110.611,-2.992],[110.658,-3.042],[110.727,-3.004],[110.749,-2.952],[110.774,-2.926],[110.893,-2.872],[110.969,-2.856],[111.012,-2.795],[111.065,-2.786],[111.136,-2.751],[111.171,-2.706],[111.165,-2.673],[111.136,-2.671],[111.119,-2.653],[111.137,-2.612],[111.106,-2.485],[111.104,-2.425],[111.071,-2.302],[111.032,-2.244],[111.08,-2.159],[111.038,-2.074],[111.081,-2.049],[111.085,-1.995],[111.03,-1.983],[111.004,-1.991],[110.981,-1.977],[110.975,-1.955],[110.997,-1.91],[110.976,-1.883],[110.982,-1.829],[111.014,-1.78],[111.006,-1.699],[110.977,-1.668],[110.939,-1.713],[110.914,-1.718],[110.887,-1.682],[110.86,-1.676],[110.858,-1.631],[110.909,-1.586],[110.952,-1.578],[110.984,-1.538],[111.014,-1.563],[111.059,-1.536],[111.078,-1.563],[111.119,-1.553],[111.123,-1.532],[111.107,-1.493],[111.147,-1.473],[111.168,-1.477],[111.175,-1.508],[111.192,-1.514],[111.185,-1.432],[111.207,-1.441],[111.22,-1.409],[111.279,-1.425],[111.275,-1.406],[111.297,-1.399],[111.327,-1.336],[111.361,-1.319],[111.379,-1.278],[111.4,-1.277],[111.409,-1.241],[111.485,-1.232],[111.573,-1.2],[111.556,-1.168],[111.571,-1.139],[111.554,-1.111],[111.571,-1.076],[111.622,-1.048],[111.614,-1.003],[111.625,-0.985],[111.718,-0.945],[111.73,-0.924],[111.854,-0.905],[111.872,-0.864],[111.919,-0.871],[111.902,-0.832],[111.91,-0.773],[111.954,-0.819],[112.029,-0.796],[112.035,-0.78],[112.014,-0.721],[112.023,-0.703],[112.158,-0.729],[112.147,-0.68],[112.159,-0.684],[112.161,-0.655],[112.197,-0.616],[112.218,-0.616],[112.244,-0.635],[112.302,-0.733],[112.329,-0.704],[112.344,-0.718],[112.365,-0.713],[112.433,-0.673],[112.449,-0.679],[112.456,-0.722],[112.475,-0.732],[112.488,-0.693],[112.585,-0.691],[112.627,-0.656],[112.684,-0.653],[112.699,-0.622],[112.743,-0.62],[112.742,-0.583],[112.753,-0.569],[112.845,-0.572],[112.887,-0.535],[112.975,-0.511],[112.992,-0.488],[113.062,-0.5],[113.111,-0.486],[113.143,-0.446],[113.158,-0.469],[113.186,-0.467],[113.2,-0.5],[113.218,-0.503],[113.267,-0.423],[113.263,-0.388],[113.208,-0.338],[113.225,-0.33],[113.236,-0.294],[113.273,-0.269],[113.284,-0.242],[113.356,-0.219],[113.386,-0.181],[113.387,-0.164],[113.409,-0.162],[113.419,-0.141],[113.397,-0.125],[113.419,-0.112],[113.44,-0.064],[113.417,-0.045],[113.437,0.015],[113.41,0.047],[113.419,0.125],[113.328,0.177],[113.271,0.242],[113.343,0.279],[113.413,0.264],[113.461,0.281],[113.586,0.405],[113.658,0.443],[113.672,0.504],[113.771,0.566],[113.776,0.589],[113.804,0.611],[113.811,0.645],[113.84,0.668]]]]}},{"type":"Feature","properties":{"code":"62","name":"Central Kalimantan"},"geometry":{"type":"MultiPolygon","coordinates":[[[[110.731,-2.997],[110.801,-2.977],[110.971,-3.067],[111.177,-2.998],[111.343,-2.909],[111.386,-2.921],[111.41,-2.907],[111.489,-2.945],[111.527,-2.979],[111.548,-3.023],[111.634,-2.959],[111.691,-2.943],[111.707,-2.904],[111.691,-2.92],[111.67,-2.895],[111.709,-2.851],[111.762,-2.907],[111.823,-3.03],[111.799,-3.202],[111.816,-3.303],[111.813,-3.417],[111.785,-3.49],[111.767,-3.504],[111.793,-3.529],[111.844,-3.541],[111.903,-3.541],[112.045,-3.428],[112.203,-3.332],[112.261,-3.313],[112.337,-3.316],[112.388,-3.337],[112.432,-3.36],[112.479,-3.414],[112.562,-3.445],[112.568,-3.433],[112.642,-3.404],[112.684,-3.363],[112.918,-3.242],[113.042,-3.13],[112.992,-3.165],[112.968,-3.158],[112.942,-3.112],[112.984,-3.046],[113.012,-3.033],[113.033,-2.975],[113.046,-2.974],[113.06,-3.011],[113.103,-3.034],[113.089,-3.035],[113.198,-3.094],[113.342,-3.279],[113.319,-3.23],[113.349,-3.266],[113.367,-3.271],[113.364,-3.251],[113.374,-3.244],[113.367,-3.254],[113.38,-3.257],[113.38,-3.234],[113.414,-3.218],[113.433,-3.169],[113.447,-3.176],[113.534,-3.156],[113.542,-3.138],[113.547,-3.155],[113.585,-3.141],[113.58,-3.162],[113.604,-3.166],[113.612,-3.191],[113.633,-3.297],[113.611,-3.396],[113.581,-3.442],[113.628,-3.465],[113.724,-3.468],[113.821,-3.45],[113.961,-3.366],[114.045,-3.347],[114.052,-3.316],[114.111,-3.371],[114.176,-3.392],[114.243,-3.369],[114.252,-3.397],[114.31,-3.439],[114.312,-3.451],[114.35,-3.456],[114.352,-3.409],[114.398,-3.257],[114.478,-3.127],[114.498,-3.001],[114.591,-2.821],[114.664,-2.802],[114.679,-2.783],[114.669,-2.755],[114.68,-2.741],[114.717,-2.743],[114.761,-2.722],[114.789,-2.678],[114.798,-2.592],[114.868,-2.516],[114.863,-2.48],[114.876,-2.464],[114.914,-2.452],[115.206,-2.241],[115.241,-2.198],[115.265,-2.226],[115.291,-2.226],[115.3,-2.144],[115.325,-2.109],[115.325,-2.085],[115.278,-2.001],[115.351,-1.93],[115.31,-1.807],[115.354,-1.662],[115.401,-1.435],[115.487,-1.423],[115.524,-1.43],[115.64,-1.369],[115.689,-1.366],[115.754,-1.31],[115.77,-1.23],[115.848,-1.162],[115.797,-1.111],[115.757,-1.133],[115.744,-1.09],[115.698,-1.055],[115.674,-1.054],[115.652,-0.992],[115.578,-0.942],[115.501,-0.847],[115.41,-0.826],[115.385,-0.808],[115.369,-0.768],[115.352,-0.582],[115.296,-0.489],[115.246,-0.445],[115.26,-0.393],[115.24,-0.377],[115.228,-0.297],[115.253,-0.291],[115.252,-0.256],[115.238,-0.237],[115.271,-0.185],[115.27,-0.146],[115.321,-0.095],[115.301,-0.032],[115.244,-0.053],[115.229,-0.072],[115.195,-0.073],[115.156,-0.102],[115.144,-0.137],[115.082,-0.152],[115.042,-0.19],[114.993,-0.185],[114.99,-0.173],[114.935,-0.188],[114.92,-0.133],[114.925,-0.094],[114.896,-0.027],[114.895,0.044],[114.835,0.079],[114.809,0.071],[114.788,0.097],[114.811,0.158],[114.802,0.179],[114.826,0.197],[114.835,0.229],[114.862,0.238],[114.908,0.319],[114.942,0.334],[114.955,0.315],[115.018,0.33],[115.05,0.303],[115.051,0.317],[115.132,0.388],[115.136,0.43],[115.095,0.47],[115.008,0.618],[114.978,0.748],[114.908,0.795],[114.905,0.775],[114.864,0.739],[114.876,0.702],[114.848,0.716],[114.824,0.753],[114.784,0.735],[114.76,0.744],[114.711,0.707],[114.695,0.714],[114.7,0.729],[114.658,0.707],[114.615,0.642],[114.604,0.648],[114.587,0.629],[114.538,0.631],[114.541,0.598],[114.519,0.566],[114.459,0.571],[114.428,0.544],[114.433,0.51],[114.412,0.496],[114.316,0.545],[114.223,0.532],[114.197,0.542],[114.187,0.571],[114.148,0.588],[114.173,0.625],[114.155,0.668],[114.108,0.703],[114.066,0.694],[114.005,0.655],[113.979,0.67],[113.889,0.645],[113.879,0.662],[113.84,0.668],[113.811,0.645],[113.804,0.611],[113.776,0.589],[113.771,0.566],[113.672,0.504],[113.658,0.443],[113.586,0.405],[113.461,0.281],[113.413,0.264],[113.343,0.279],[113.271,0.242],[113.328,0.177],[113.419,0.125],[113.41,0.047],[113.437,0.015],[113.417,-0.045],[113.44,-0.064],[113.419,-0.112],[113.397,-0.125],[113.419,-0.141],[113.409,-0.162],[113.387,-0.164],[113.386,-0.181],[113.356,-0.219],[113.284,-0.242],[113.273,-0.269],[113.236,-0.294],[113.225,-0.33],[113.208,-0.338],[113.263,-0.388],[113.267,-0.423],[113.218,-0.503],[113.2,-0.5],[113.186,-0.467],[113.158,-0.469],[113.143,-0.446],[113.111,-0.486],[113.062,-0.5],[112.992,-0.488],[112.975,-0.511],[112.887,-0.535],[112.845,-0.572],[112.753,-0.569],[112.742,-0.583],[112.743,-0.62],[112.699,-0.622],[112.684,-0.653],[112.627,-0.656],[112.585,-0.691],[112.488,-0.693],[112.475,-0.732],[112.456,-0.722],[112.449,-0.679],[112.433,-0.673],[112.365,-0.713],[112.344,-0.718],[112.329,-0.704],[112.302,-0.733],[112.244,-0.635],[112.218,-0.616],[112.197,-0.616],[112.161,-0.655],[112.159,-0.684],[112.147,-0.68],[112.158,-0.729],[112.023,-0.703],[112.014,-0.721],[112.035,-0.78],[112.029,-0.796],[111.954,-0.819],[111.91,-0.773],[111.902,-0.832],[111.919,-0.871],[111.872,-0.864],[111.854,-0.905],[111.73,-0.924],[111.718,-0.945],[111.625,-0.985],[111.614,-1.003],[111.622,-1.048],[111.571,-1.076],[111.554,-1.111],[111.571,-1.139],[111.556,-1.168],[111.573,-1.2],[111.485,-1.232],[111.409,-1.241],[111.4,-1.277],[111.379,-1.278],[111.361,-1.319],[111.327,-1.336],[111.297,-1.399],[111.275,-1.406],[111.279,-1.425],[111.22,-1.409],[111.207,-1.441],[111.185,-1.432],[111.192,-1.514],[111.175,-1.508],[111.168,-1.477],[111.147,-1.473],[111.107,-1.493],[111.123,-1.532],[111.119,-1.553],[111.078,-1.563],[111.059,-1.536],[111.014,-1.563],[110.984,-1.538],[110.952,-1.578],[110.909,-1.586],[110.858,-1.631],[110.86,-1.676],[110.887,-1.682],[110.914,-1.718],[110.939,-1.713],[110.977,-1.668],[111.006,-1.699],[111.014,-1.78],[110.982,-1.829],[110.976,-1.883],[110.997,-1.91],[110.975,-1.955],[110.981,-1.977],[111.004,-1.991],[111.03,-1.983],[111.085,-1.995],[111.081,-2.049],[111.038,-2.074],[111.08,-2.159],[111.032,-2.244],[111.071,-2.302],[111.104,-2.425],[111.106,-2.485],[111.137,-2.612],[111.119,-2.653],[111.136,-2.671],[111.165,-2.673],[111.173,-2.69],[111.136,-2.751],[111.065,-2.786],[111.012,-2.795],[110.969,-2.856],[110.893,-2.872],[110.774,-2.926],[110.749,-2.952],[110.731,-2.997]]]]}},{"type":"Feature","properties":{"code":"63","name":"South Kalimantan"},"geometry":{"type":"MultiPolygon","coordinates":[[[[116.062,-3.866],[116.057,-3.904],[116.08,-3.924],[116.051,-3.989],[116.058,-4.007],[116.039,-4.024],[116.048,-4.062],[116.062,-4.026],[116.068,-4.035],[116.08,-4.026],[116.074,-4.04],[116.086,-4.039],[116.085,-4.057],[116.098,-4.055],[116.084,-4.07],[116.095,-4.07],[116.091,-4.085],[116.116,-4.022],[116.143,-4.035],[116.173,-3.997],[116.21,-3.985],[116.19,-3.973],[116.209,-3.952],[116.244,-3.942],[116.274,-3.907],[116.31,-3.917],[116.297,-3.849],[116.271,-3.816],[116.278,-3.798],[116.314,-3.774],[116.339,-3.728],[116.315,-3.729],[116.3,-3.712],[116.301,-3.645],[116.29,-3.611],[116.306,-3.59],[116.271,-3.544],[116.291,-3.507],[116.313,-3.507],[116.314,-3.474],[116.305,-3.444],[116.25,-3.374],[116.28,-3.214],[116.268,-3.221],[116.255,-3.21],[116.138,-3.306],[116.115,-3.304],[116.073,-3.448],[116.038,-3.482],[116.045,-3.545],[116.031,-3.591],[116.009,-3.614],[116.005,-3.682],[116.077,-3.811],[116.078,-3.847],[116.062,-3.849],[116.062,-3.866]]],[[[116.368,-3.651],[116.382,-3.651],[116.386,-3.628],[116.399,-3.627],[116.407,-3.53],[116.435,-3.421],[116.431,-3.368],[116.408,-3.36],[116.391,-3.413],[116.339,-3.459],[116.312,-3.555],[116.342,-3.567],[116.368,-3.651]]],[[[114.353,-3.447],[114.393,-3.451],[114.391,-3.464],[114.4,-3.449],[114.406,-3.469],[114.429,-3.48],[114.425,-3.494],[114.499,-3.511],[114.514,-3.543],[114.571,-3.573],[114.612,-3.64],[114.623,-3.701],[114.604,-3.83],[114.639,-4.039],[114.637,-4.061],[114.624,-4.066],[114.629,-4.152],[114.619,-4.161],[114.662,-4.178],[114.708,-4.171],[115.005,-4.014],[115.251,-3.908],[115.662,-3.739],[115.716,-3.732],[115.847,-3.627],[115.971,-3.607],[115.996,-3.565],[115.973,-3.562],[115.984,-3.57],[115.993,-3.556],[115.993,-3.518],[116.015,-3.483],[116.007,-3.433],[116.024,-3.411],[116.032,-3.363],[116.049,-3.352],[116.085,-3.282],[116.185,-3.242],[116.168,-3.167],[116.207,-3.129],[116.274,-3.13],[116.27,-3.114],[116.182,-3.059],[116.177,-2.998],[116.136,-2.975],[116.111,-2.996],[116.085,-2.99],[116.123,-2.96],[116.102,-2.933],[116.132,-2.889],[116.12,-2.871],[116.134,-2.859],[116.122,-2.821],[116.138,-2.816],[116.155,-2.9],[116.209,-2.942],[116.214,-3.002],[116.271,-3.002],[116.364,-2.879],[116.369,-2.662],[116.416,-2.579],[116.392,-2.584],[116.359,-2.562],[116.359,-2.55],[116.323,-2.58],[116.312,-2.535],[116.336,-2.534],[116.353,-2.518],[116.398,-2.528],[116.422,-2.501],[116.451,-2.502],[116.476,-2.512],[116.481,-2.572],[116.512,-2.562],[116.531,-2.537],[116.523,-2.518],[116.554,-2.419],[116.435,-2.371],[116.358,-2.357],[116.244,-2.362],[116.198,-2.336],[116.011,-2.325],[115.967,-2.293],[115.96,-2.32],[115.934,-2.325],[115.918,-2.345],[115.896,-2.338],[115.888,-2.379],[115.874,-2.377],[115.852,-2.397],[115.836,-2.387],[115.816,-2.325],[115.836,-2.301],[115.818,-2.294],[115.804,-2.265],[115.809,-2.245],[115.781,-2.198],[115.792,-2.104],[115.812,-2.092],[115.818,-2.066],[115.789,-2.051],[115.735,-2.058],[115.706,-2.036],[115.73,-2.008],[115.7,-1.987],[115.732,-1.889],[115.727,-1.787],[115.701,-1.731],[115.687,-1.732],[115.667,-1.707],[115.677,-1.658],[115.668,-1.639],[115.652,-1.642],[115.629,-1.606],[115.637,-1.547],[115.613,-1.535],[115.6,-1.547],[115.582,-1.524],[115.553,-1.544],[115.537,-1.532],[115.543,-1.491],[115.571,-1.483],[115.591,-1.442],[115.647,-1.388],[115.675,-1.394],[115.654,-1.422],[115.671,-1.444],[115.708,-1.415],[115.723,-1.377],[115.745,-1.36],[115.757,-1.302],[115.689,-1.366],[115.64,-1.369],[115.524,-1.43],[115.487,-1.423],[115.401,-1.435],[115.354,-1.662],[115.31,-1.807],[115.351,-1.93],[115.278,-2.001],[115.325,-2.085],[115.325,-2.109],[115.3,-2.144],[115.291,-2.226],[115.265,-2.226],[115.241,-2.198],[115.206,-2.241],[114.914,-2.452],[114.876,-2.464],[114.863,-2.48],[114.868,-2.516],[114.798,-2.592],[114.789,-2.678],[114.761,-2.722],[114.717,-2.743],[114.68,-2.741],[114.669,-2.755],[114.679,-2.783],[114.664,-2.802],[114.591,-2.821],[114.498,-3.001],[114.478,-3.127],[114.398,-3.257],[114.352,-3.409],[114.353,-3.447]]]]}},{"type":"Feature","properties":{"code":"64","name":"East Kalimantan"},"geometry":{"type":"MultiPolygon","coordinates":[[[[115.756,-1.303],[115.745,-1.36],[115.723,-1.377],[115.708,-1.415],[115.671,-1.444],[115.654,-1.422],[115.675,-1.394],[115.647,-1.388],[115.591,-1.442],[115.571,-1.483],[115.543,-1.491],[115.537,-1.532],[115.553,-1.544],[115.582,-1.524],[115.6,-1.547],[115.613,-1.535],[115.637,-1.547],[115.629,-1.606],[115.652,-1.642],[115.668,-1.639],[115.677,-1.658],[115.667,-1.707],[115.687,-1.732],[115.701,-1.731],[115.727,-1.787],[115.732,-1.889],[115.7,-1.987],[115.73,-2.008],[115.706,-2.036],[115.735,-2.058],[115.789,-2.051],[115.818,-2.066],[115.812,-2.092],[115.792,-2.104],[115.781,-2.198],[115.809,-2.245],[115.804,-2.265],[115.818,-2.294],[115.836,-2.301],[115.816,-2.325],[115.836,-2.387],[115.852,-2.397],[115.874,-2.377],[115.888,-2.379],[115.896,-2.338],[115.918,-2.345],[115.934,-2.325],[115.96,-2.32],[115.967,-2.293],[116.011,-2.325],[116.198,-2.336],[116.244,-2.362],[116.358,-2.357],[116.435,-2.371],[116.554,-2.419],[116.591,-2.253],[116.587,-2.169],[116.569,-2.198],[116.546,-2.209],[116.553,-2.175],[116.518,-2.165],[116.524,-2.151],[116.504,-2.109],[116.435,-2.133],[116.389,-2.127],[116.392,-2.116],[116.357,-2.124],[116.349,-2.114],[116.393,-2.084],[116.455,-2.065],[116.46,-2.051],[116.457,-1.917],[116.442,-1.873],[116.421,-1.864],[116.452,-1.813],[116.451,-1.769],[116.397,-1.77],[116.388,-1.758],[116.264,-1.81],[116.218,-1.795],[116.209,-1.776],[116.25,-1.781],[116.284,-1.731],[116.309,-1.725],[116.315,-1.701],[116.384,-1.685],[116.535,-1.621],[116.559,-1.601],[116.533,-1.505],[116.545,-1.458],[116.59,-1.426],[116.762,-1.358],[116.759,-1.288],[116.779,-1.245],[116.747,-1.219],[116.71,-1.216],[116.767,-1.187],[116.746,-1.179],[116.749,-1.157],[116.702,-1.122],[116.714,-1.105],[116.701,-1.086],[116.721,-1.097],[116.727,-1.075],[116.717,-1.068],[116.729,-1.067],[116.736,-1.024],[116.777,-0.979],[116.753,-1.014],[116.729,-1.102],[116.751,-1.107],[116.746,-1.114],[116.781,-1.146],[116.784,-1.212],[116.798,-1.216],[116.819,-1.201],[116.811,-1.282],[116.884,-1.277],[117.004,-1.196],[117.023,-1.141],[117.066,-1.106],[117.156,-0.97],[117.197,-0.932],[117.248,-0.91],[117.295,-0.871],[117.315,-0.871],[117.34,-0.912],[117.406,-0.875],[117.442,-0.893],[117.43,-0.828],[117.446,-0.806],[117.488,-0.84],[117.513,-0.809],[117.552,-0.805],[117.561,-0.783],[117.601,-0.787],[117.612,-0.773],[117.605,-0.727],[117.515,-0.736],[117.462,-0.694],[117.472,-0.683],[117.529,-0.689],[117.525,-0.653],[117.563,-0.649],[117.569,-0.626],[117.55,-0.618],[117.554,-0.598],[117.58,-0.576],[117.581,-0.485],[117.619,-0.463],[117.628,-0.424],[117.602,-0.406],[117.557,-0.433],[117.53,-0.384],[117.54,-0.373],[117.526,-0.351],[117.494,-0.346],[117.492,-0.329],[117.453,-0.352],[117.452,-0.304],[117.426,-0.275],[117.417,-0.223],[117.443,-0.202],[117.478,-0.075],[117.519,-0.031],[117.506,0.002],[117.519,0.025],[117.502,0.04],[117.492,0.028],[117.49,0.041],[117.512,0.058],[117.487,0.063],[117.467,0.046],[117.477,0.083],[117.458,0.101],[117.486,0.083],[117.478,0.104],[117.501,0.101],[117.478,0.11],[117.506,0.107],[117.522,0.125],[117.508,0.159],[117.495,0.148],[117.495,0.159],[117.488,0.15],[117.478,0.158],[117.487,0.176],[117.506,0.175],[117.493,0.185],[117.519,0.198],[117.528,0.221],[117.516,0.243],[117.529,0.26],[117.516,0.269],[117.534,0.286],[117.522,0.321],[117.542,0.317],[117.552,0.335],[117.567,0.392],[117.557,0.408],[117.565,0.419],[117.554,0.422],[117.585,0.404],[117.606,0.42],[117.606,0.488],[117.634,0.515],[117.673,0.617],[117.71,0.624],[117.72,0.708],[117.754,0.755],[117.81,0.796],[117.873,0.808],[117.888,0.828],[117.916,0.836],[117.922,0.807],[117.959,0.794],[117.968,0.777],[118.03,0.781],[118.024,0.856],[117.97,0.956],[117.973,0.975],[117.999,0.993],[118.01,0.959],[118.057,0.94],[118.052,0.913],[118.063,0.904],[118.307,0.852],[118.34,0.84],[118.346,0.813],[118.386,0.802],[118.45,0.837],[118.549,0.81],[118.592,0.811],[118.621,0.845],[118.67,0.856],[118.698,0.845],[118.71,0.813],[118.724,0.823],[118.768,0.804],[118.795,0.812],[118.792,0.801],[118.856,0.877],[118.894,0.875],[118.908,0.904],[118.965,0.943],[118.987,0.988],[118.978,1.037],[118.918,1.065],[118.87,1.068],[118.858,1.051],[118.836,1.053],[118.831,1.098],[118.777,1.133],[118.788,1.136],[118.774,1.156],[118.758,1.147],[118.722,1.155],[118.764,1.159],[118.769,1.197],[118.714,1.249],[118.566,1.362],[118.516,1.356],[118.518,1.375],[118.508,1.376],[118.485,1.363],[118.484,1.383],[118.424,1.408],[118.431,1.422],[118.416,1.428],[118.428,1.433],[118.376,1.426],[118.423,1.448],[118.41,1.46],[118.411,1.487],[118.376,1.486],[118.386,1.501],[118.3,1.531],[118.165,1.628],[118.134,1.635],[118.053,1.73],[118.067,1.76],[118.049,1.783],[117.936,1.802],[117.898,1.837],[117.892,1.871],[117.871,1.881],[117.861,1.874],[117.879,1.973],[117.864,1.966],[117.839,2.008],[117.761,2.019],[117.845,2.043],[117.845,2.026],[117.858,2.023],[117.908,2.041],[117.914,2.098],[117.957,2.12],[117.956,2.131],[117.925,2.14],[117.937,2.179],[118.021,2.197],[118.102,2.285],[118.088,2.326],[118.045,2.38],[118.024,2.358],[118.001,2.435],[117.975,2.425],[117.951,2.385],[117.917,2.399],[117.876,2.392],[117.827,2.327],[117.781,2.336],[117.764,2.329],[117.738,2.347],[117.723,2.399],[117.7,2.415],[117.63,2.519],[117.608,2.522],[117.588,2.503],[117.561,2.522],[117.515,2.525],[117.469,2.552],[117.415,2.609],[117.393,2.598],[117.316,2.606],[117.252,2.578],[117.095,2.598],[117.037,2.524],[116.963,2.51],[116.862,2.464],[116.832,2.396],[116.811,2.379],[116.792,2.396],[116.781,2.449],[116.741,2.532],[116.649,2.457],[116.628,2.419],[116.601,2.426],[116.573,2.453],[116.535,2.448],[116.509,2.458],[116.497,2.398],[116.512,2.382],[116.511,2.346],[116.485,2.316],[116.486,2.286],[116.464,2.28],[116.423,2.305],[116.338,2.29],[116.3,2.233],[116.354,2.176],[116.355,2.157],[116.323,2.122],[116.301,2.124],[116.297,2.103],[116.264,2.109],[116.228,2.091],[116.237,2.016],[116.204,1.989],[116.183,1.894],[116.196,1.847],[116.135,1.661],[116.086,1.66],[116.044,1.606],[116.053,1.588],[116.048,1.556],[116.013,1.527],[115.982,1.535],[115.959,1.488],[115.923,1.481],[115.869,1.445],[115.868,1.409],[115.845,1.379],[115.777,1.358],[115.718,1.268],[115.638,1.286],[115.502,1.256],[115.436,1.223],[115.411,1.187],[115.425,1.162],[115.418,1.127],[115.383,1.101],[115.372,1.067],[115.33,1.059],[115.31,1.068],[115.287,1.046],[115.205,1.064],[115.177,1.117],[115.13,1.13],[115.046,1.115],[115.015,1.124],[114.993,1.159],[114.99,1.192],[114.937,1.182],[114.894,1.215],[114.844,1.17],[114.757,1.255],[114.722,1.268],[114.726,1.313],[114.697,1.358],[114.615,1.364],[114.6,1.394],[114.575,1.396],[114.562,1.432],[114.537,1.435],[114.496,1.477],[114.475,1.475],[114.409,1.521],[114.387,1.516],[114.383,1.492],[114.31,1.47],[114.301,1.456],[114.24,1.447],[114.223,1.416],[114.152,1.385],[114.153,1.313],[114.142,1.293],[114.161,1.266],[114.126,1.224],[114.14,1.199],[114.117,1.154],[114.099,1.149],[114.08,1.162],[114.046,1.132],[114.03,1.147],[113.986,1.144],[113.959,1.114],[113.942,1.063],[113.894,1.052],[113.892,1.023],[113.915,1.008],[113.918,0.987],[113.908,0.954],[113.88,0.928],[113.875,0.893],[113.926,0.838],[113.889,0.787],[113.895,0.739],[113.875,0.713],[113.844,0.706],[113.84,0.668],[113.879,0.662],[113.889,0.645],[113.979,0.67],[114.005,0.655],[114.066,0.694],[114.108,0.703],[114.165,0.647],[114.173,0.625],[114.148,0.588],[114.187,0.571],[114.188,0.549],[114.212,0.535],[114.316,0.545],[114.412,0.496],[114.433,0.51],[114.428,0.544],[114.459,0.571],[114.519,0.566],[114.541,0.598],[114.538,0.631],[114.587,0.629],[114.604,0.648],[114.615,0.642],[114.658,0.707],[114.7,0.729],[114.695,0.714],[114.711,0.707],[114.76,0.744],[114.784,0.735],[114.824,0.753],[114.848,0.716],[114.876,0.702],[114.864,0.739],[114.905,0.775],[114.908,0.795],[114.978,0.748],[115.008,0.618],[115.095,0.47],[115.136,0.43],[115.132,0.388],[115.051,0.317],[115.05,0.303],[115.018,0.33],[114.955,0.315],[114.942,0.334],[114.908,0.319],[114.862,0.238],[114.835,0.229],[114.826,0.197],[114.802,0.179],[114.811,0.158],[114.788,0.097],[114.809,0.071],[114.835,0.079],[114.895,0.044],[114.896,-0.027],[114.925,-0.094],[114.92,-0.133],[114.935,-0.188],[114.99,-0.173],[114.993,-0.185],[115.042,-0.19],[115.082,-0.152],[115.144,-0.137],[115.156,-0.102],[115.195,-0.073],[115.229,-0.072],[115.244,-0.053],[115.301,-0.032],[115.321,-0.095],[115.27,-0.146],[115.271,-0.185],[115.238,-0.237],[115.252,-0.256],[115.253,-0.291],[115.228,-0.297],[115.24,-0.377],[115.26,-0.393],[115.246,-0.445],[115.296,-0.489],[115.352,-0.582],[115.369,-0.768],[115.39,-0.816],[115.501,-0.847],[115.578,-0.942],[115.652,-0.992],[115.674,-1.054],[115.698,-1.055],[115.744,-1.09],[115.757,-1.133],[115.797,-1.111],[115.847,-1.155],[115.77,-1.23],[115.756,-1.303]]]]}},{"type":"Feature","properties":{"code":"65","name":"North Kalimantan"},"geometry":{"type":"MultiPolygon","coordinates":[[[[117.642,2.815],[117.681,2.798],[117.738,2.816],[117.693,2.853],[117.658,2.838],[117.642,2.815]]],[[[117.703,2.932],[117.581,2.91],[117.698,2.902],[117.714,2.906],[117.703,2.932]]],[[[118.001,2.435],[117.948,2.461],[117.79,2.644],[117.782,2.752],[117.747,2.755],[117.703,2.783],[117.618,2.797],[117.603,2.812],[117.61,2.823],[117.642,2.821],[117.686,2.862],[117.71,2.861],[117.721,2.889],[117.555,2.908],[117.566,2.921],[117.697,2.947],[117.666,2.99],[117.567,2.964],[117.621,3.018],[117.622,3.059],[117.571,3.046],[117.545,3.068],[117.516,3.068],[117.442,3.051],[117.447,3.082],[117.479,3.099],[117.452,3.123],[117.467,3.128],[117.446,3.161],[117.419,3.173],[117.399,3.159],[117.37,3.181],[117.32,3.169],[117.307,3.208],[117.378,3.23],[117.397,3.258],[117.414,3.249],[117.452,3.275],[117.518,3.275],[117.524,3.299],[117.507,3.321],[117.447,3.342],[117.436,3.372],[117.444,3.404],[117.485,3.432],[117.491,3.455],[117.518,3.481],[117.505,3.498],[117.485,3.492],[117.46,3.509],[117.442,3.504],[117.438,3.529],[117.371,3.562],[117.292,3.564],[117.279,3.588],[117.282,3.619],[117.392,3.64],[117.493,3.598],[117.516,3.62],[117.521,3.674],[117.587,3.631],[117.664,3.615],[117.716,3.64],[117.742,3.637],[117.768,3.682],[117.826,3.704],[117.835,3.794],[117.826,3.81],[117.757,3.869],[117.722,3.875],[117.705,3.86],[117.678,3.876],[117.683,3.916],[117.636,3.915],[117.598,3.934],[117.531,4.031],[117.472,4.081],[117.418,4.094],[117.431,4.134],[117.523,4.101],[117.543,4.136],[117.587,4.16],[117.591,4.174],[117.566,4.18],[117.529,4.161],[117.457,4.179],[117.406,4.254],[117.382,4.262],[117.371,4.286],[117.296,4.31],[117.246,4.374],[117.224,4.369],[117.197,4.336],[117.168,4.338],[117.151,4.354],[117.106,4.333],[117.042,4.347],[117.019,4.319],[117.005,4.323],[117.004,4.346],[116.965,4.338],[116.953,4.355],[116.908,4.369],[116.84,4.327],[116.811,4.351],[116.79,4.338],[116.752,4.389],[116.733,4.351],[116.702,4.333],[116.667,4.352],[116.63,4.334],[116.614,4.343],[116.612,4.377],[116.586,4.374],[116.568,4.408],[116.562,4.39],[116.536,4.376],[116.537,4.323],[116.486,4.337],[116.475,4.304],[116.441,4.289],[116.433,4.326],[116.349,4.391],[116.272,4.363],[116.251,4.38],[116.205,4.378],[116.171,4.393],[116.163,4.342],[116.131,4.331],[116.12,4.339],[116.079,4.276],[116.039,4.295],[116.036,4.329],[116.009,4.335],[116.007,4.348],[115.93,4.354],[115.908,4.392],[115.878,4.391],[115.862,4.343],[115.87,4.3],[115.824,4.262],[115.83,4.241],[115.801,4.226],[115.796,4.243],[115.766,4.251],[115.731,4.194],[115.705,4.198],[115.685,4.163],[115.677,4.09],[115.653,4.036],[115.642,3.966],[115.616,3.938],[115.581,3.942],[115.558,3.919],[115.584,3.885],[115.596,3.89],[115.62,3.869],[115.614,3.824],[115.579,3.747],[115.576,3.611],[115.591,3.579],[115.606,3.576],[115.611,3.513],[115.652,3.44],[115.619,3.409],[115.604,3.448],[115.58,3.45],[115.538,3.363],[115.541,3.33],[115.525,3.32],[115.529,3.285],[115.516,3.259],[115.533,3.24],[115.522,3.194],[115.567,3.162],[115.519,3.114],[115.52,3.058],[115.484,3.015],[115.453,3.028],[115.429,3.017],[115.406,2.982],[115.335,2.974],[115.323,3.012],[115.285,3.05],[115.249,2.967],[115.209,2.956],[115.152,2.914],[115.151,2.872],[115.09,2.823],[115.124,2.8],[115.142,2.803],[115.153,2.787],[115.138,2.772],[115.141,2.744],[115.092,2.698],[115.112,2.685],[115.117,2.647],[115.088,2.62],[115.087,2.604],[115.11,2.581],[115.172,2.606],[115.208,2.563],[115.212,2.539],[115.233,2.536],[115.237,2.506],[115.195,2.471],[115.18,2.482],[115.135,2.476],[115.099,2.443],[115.091,2.406],[115.046,2.408],[115.048,2.389],[115.034,2.394],[115.022,2.368],[114.994,2.351],[114.958,2.368],[114.946,2.319],[114.966,2.295],[114.935,2.283],[114.915,2.259],[114.864,2.272],[114.83,2.254],[114.816,2.266],[114.8,2.251],[114.79,2.204],[114.779,2.199],[114.78,2.145],[114.81,2.1],[114.793,2.086],[114.808,2.064],[114.793,2.05],[114.809,2.023],[114.856,2.046],[114.879,2.039],[114.881,2.018],[114.848,1.953],[114.879,1.915],[114.855,1.897],[114.816,1.893],[114.792,1.85],[114.766,1.851],[114.744,1.87],[114.716,1.856],[114.726,1.833],[114.692,1.808],[114.714,1.785],[114.705,1.762],[114.718,1.728],[114.711,1.671],[114.649,1.59],[114.614,1.574],[114.604,1.531],[114.611,1.501],[114.564,1.426],[114.575,1.396],[114.6,1.394],[114.615,1.364],[114.697,1.358],[114.726,1.313],[114.722,1.268],[114.757,1.255],[114.844,1.17],[114.894,1.215],[114.937,1.182],[114.99,1.192],[114.993,1.159],[115.021,1.122],[115.097,1.118],[115.13,1.13],[115.172,1.119],[115.196,1.091],[115.193,1.07],[115.264,1.047],[115.295,1.048],[115.31,1.068],[115.364,1.062],[115.383,1.101],[115.418,1.127],[115.425,1.162],[115.411,1.187],[115.436,1.223],[115.502,1.256],[115.638,1.286],[115.718,1.268],[115.777,1.358],[115.845,1.379],[115.868,1.409],[115.869,1.445],[115.923,1.481],[115.959,1.488],[115.982,1.535],[116.013,1.527],[116.048,1.556],[116.053,1.588],[116.044,1.606],[116.086,1.66],[116.135,1.661],[116.196,1.847],[116.183,1.894],[116.204,1.989],[116.237,2.016],[116.228,2.091],[116.264,2.109],[116.297,2.103],[116.301,2.124],[116.323,2.122],[116.355,2.157],[116.354,2.176],[116.3,2.233],[116.338,2.29],[116.423,2.305],[116.464,2.28],[116.486,2.286],[116.485,2.316],[116.511,2.346],[116.512,2.382],[116.497,2.398],[116.509,2.458],[116.535,2.448],[116.573,2.453],[116.601,2.426],[116.628,2.419],[116.649,2.457],[116.741,2.532],[116.781,2.449],[116.792,2.396],[116.811,2.379],[116.832,2.396],[116.862,2.464],[116.963,2.51],[117.037,2.524],[117.095,2.598],[117.252,2.578],[117.316,2.606],[117.393,2.598],[117.415,2.609],[117.469,2.552],[117.515,2.525],[117.561,2.522],[117.588,2.503],[117.608,2.522],[117.63,2.519],[117.7,2.415],[117.723,2.399],[117.738,2.347],[117.764,2.329],[117.781,2.336],[117.827,2.327],[117.876,2.392],[117.917,2.399],[117.951,2.385],[117.975,2.425],[118.001,2.435]]],[[[117.616,3.263],[117.624,3.251],[117.623,3.267],[117.633,3.262],[117.638,3.252],[117.628,3.246],[117.638,3.239],[117.656,3.252],[117.669,3.405],[117.662,3.42],[117.615,3.441],[117.547,3.442],[117.52,3.416],[117.519,3.366],[117.542,3.326],[117.595,3.28],[117.612,3.281],[117.616,3.263]]],[[[117.503,3.345],[117.498,3.405],[117.451,3.404],[117.452,3.349],[117.503,3.345]]],[[[117.639,4.139],[117.591,4.087],[117.601,4.013],[117.676,3.966],[117.723,3.987],[117.753,4.06],[117.668,4.145],[117.639,4.139]]],[[[117.684,4.166],[117.861,4.03],[117.906,4.041],[117.927,4.061],[117.918,4.079],[117.925,4.13],[117.9,4.166],[117.684,4.166]]],[[[117.615,3.48],[117.612,3.497],[117.56,3.523],[117.55,3.525],[117.55,3.506],[117.537,3.5],[117.548,3.471],[117.615,3.48]]],[[[117.872,3.479],[117.85,3.537],[117.801,3.59],[117.755,3.561],[117.761,3.515],[117.826,3.475],[117.835,3.458],[117.867,3.45],[117.872,3.479]]],[[[117.522,3.493],[117.532,3.489],[117.547,3.507],[117.545,3.527],[117.416,3.556],[117.416,3.542],[117.446,3.535],[117.442,3.51],[117.462,3.515],[117.485,3.498],[117.504,3.507],[117.522,3.493]]],[[[117.529,3.579],[117.506,3.585],[117.539,3.559],[117.625,3.537],[117.666,3.552],[117.598,3.582],[117.529,3.579]]],[[[117.351,3.588],[117.41,3.588],[117.435,3.563],[117.461,3.568],[117.456,3.583],[117.396,3.613],[117.292,3.598],[117.301,3.579],[117.351,3.588]]]]}}]}